{
"type": "FeatureCollection",
"name": "beijing_boundary",
"crs": { "type": "name", "properties": { "name": "urn:ogc:def:crs:OGC:1.3:CRS84" } },
"features": [
{ "type": "Feature", "properties": { "GID_2": "CHN.2.1_1", "GID_0": "CHN", "COUNTRY": "China", "GID_1": "CHN.2_1", "NAME_1": "Beijing", "NL_NAME_1": "北京|北京", "NAME_2": "Beijing", "VARNAME_2": "Běijīng", "NL_NAME_2": "北京|北京", "TYPE_2": "Zhíxiáshì", "ENGTYPE_2": "Municipality", "CC_2": "NA", "HASC_2": "NA" }, "geometry": { "type": "MultiPolygon", "coordinates": [ [ [ [ 116.710380554000039, 39.616970062000064 ], [ 116.69883728100001, 39.617740631000117 ], [ 116.699935913000218, 39.610637665000013 ], [ 116.705520629000034, 39.607166290000123 ], [ 116.710815430000025, 39.604381562000128 ], [ 116.716995239000198, 39.601360321000186 ], [ 116.721946716000161, 39.595146179999972 ], [ 116.716247559000294, 39.589008332 ], [ 116.708831787000122, 39.58768844500014 ], [ 116.700279236000029, 39.590496063999979 ], [ 116.692337036000026, 39.594669342000145 ], [ 116.682929993000016, 39.59999847500012 ], [ 116.672599792000142, 39.60304641700003 ], [ 116.663429260000044, 39.603336334000176 ], [ 116.654556274000015, 39.604309082000157 ], [ 116.642417907000322, 39.604389190000063 ], [ 116.629409790000068, 39.605846406000182 ], [ 116.611145019000105, 39.614662171000134 ], [ 116.605308533000311, 39.622482301000048 ], [ 116.599464417000149, 39.629154206000067 ], [ 116.58758545, 39.626480103000063 ], [ 116.577178955000022, 39.623111725000058 ], [ 116.568557739000084, 39.619956970000089 ], [ 116.562301636000029, 39.616333008000083 ], [ 116.556930542000032, 39.612472534000062 ], [ 116.550376892000145, 39.608161927000026 ], [ 116.544105530000138, 39.603622437000126 ], [ 116.537574767000024, 39.601600647000168 ], [ 116.524818419000098, 39.598926544000165 ], [ 116.517372130000126, 39.594619750000163 ], [ 116.515243530000021, 39.589138031000175 ], [ 116.514312744000108, 39.584568024000134 ], [ 116.511878968000019, 39.57771301300005 ], [ 116.51004028400007, 39.570858002000136 ], [ 116.498664856, 39.557643890000179 ], [ 116.490333558000088, 39.552883148999967 ], [ 116.479011535000041, 39.544017791000101 ], [ 116.467407226000091, 39.537208557000156 ], [ 116.458801270000208, 39.533821106000119 ], [ 116.448127746000068, 39.531127930000025 ], [ 116.435661316000164, 39.52638244700006 ], [ 116.423789978000059, 39.521408082000107 ], [ 116.412208557000099, 39.515735626000094 ], [ 116.403640746000178, 39.516464233000079 ], [ 116.397407531000226, 39.513977051000154 ], [ 116.399429321000184, 39.507556915000123 ], [ 116.401153564000083, 39.501827240000068 ], [ 116.405242921000195, 39.495628357000044 ], [ 116.411102295000205, 39.488735199000132 ], [ 116.422607422000056, 39.486392976000047 ], [ 116.434700011000132, 39.483589172000052 ], [ 116.441444397000168, 39.477149963000045 ], [ 116.44313812200005, 39.468212127000072 ], [ 116.444816590000073, 39.457218171000079 ], [ 116.447975158000077, 39.441978454999969 ], [ 116.445976257000325, 39.442073822000168 ], [ 116.437637329000154, 39.442356110000048 ], [ 116.42960357700008, 39.443492891000062 ], [ 116.419448852000073, 39.445484162000071 ], [ 116.404533385000036, 39.448253632000046 ], [ 116.396141052000189, 39.450523378000128 ], [ 116.382110595000199, 39.453315736000036 ], [ 116.368812561000027, 39.453147888 ], [ 116.356773377000081, 39.451416015000177 ], [ 116.344795226000087, 39.448543550000068 ], [ 116.336341857000093, 39.451953888000162 ], [ 116.327949524000019, 39.460170745000141 ], [ 116.318061828000054, 39.468570709000062 ], [ 116.308456421000187, 39.477207183000189 ], [ 116.298713684000063, 39.48263931300005 ], [ 116.290222169000117, 39.486728669000172 ], [ 116.279045105000137, 39.49119949400017 ], [ 116.265731811000023, 39.496971132000056 ], [ 116.253326417000039, 39.502315522000117 ], [ 116.243736268000134, 39.504768372000058 ], [ 116.241485595000313, 39.508132935000162 ], [ 116.239501952000069, 39.512191773000097 ], [ 116.238212586000145, 39.514217377000136 ], [ 116.237747192000029, 39.517936707000047 ], [ 116.237213135000161, 39.52219772400008 ], [ 116.235618592000264, 39.530158997000058 ], [ 116.235336304000043, 39.541366577000133 ], [ 116.234870910000041, 39.550281525 ], [ 116.231338502000199, 39.555664062000119 ], [ 116.218078613000216, 39.565784454000095 ], [ 116.215423584000177, 39.571201325000061 ], [ 116.215530396000304, 39.573997499000143 ], [ 116.215538024000011, 39.574222564000024 ], [ 116.210861205000242, 39.575553894000052 ], [ 116.194007873000032, 39.577892304000045 ], [ 116.181877137000015, 39.579296112000065 ], [ 116.168861389000085, 39.580474855000148 ], [ 116.158203125000341, 39.579586028000051 ], [ 116.148719788000221, 39.576633454000159 ], [ 116.144264222000174, 39.572982789000037 ], [ 116.139511109000068, 39.568878174000133 ], [ 116.134757996000189, 39.564998627000193 ], [ 116.12321472300016, 39.564563752000026 ], [ 116.109901429000161, 39.566196440999988 ], [ 116.09986114600008, 39.570568085000048 ], [ 116.090690614000209, 39.57264709500015 ], [ 116.083892823000042, 39.573345185000164 ], [ 116.07204437300004, 39.572448731000065 ], [ 116.061096192000036, 39.572471620000101 ], [ 116.035354613000095, 39.574115754000047 ], [ 116.025543213000105, 39.576297759 ], [ 116.022933959000056, 39.576877594000109 ], [ 116.014648438000108, 39.57757568400018 ], [ 116.00429535, 39.579418183000087 ], [ 115.989807129000042, 39.586303711000141 ], [ 115.982261658000084, 39.590480804000151 ], [ 115.981529236000029, 39.59088897800018 ], [ 115.973236085000167, 39.588153840000189 ], [ 115.972038269000109, 39.580829621000191 ], [ 115.969398498000146, 39.573814393000077 ], [ 115.968765258000303, 39.572135926000044 ], [ 115.957206726000209, 39.567111969000109 ], [ 115.946563720000086, 39.570781708000084 ], [ 115.937103272000172, 39.577198029000101 ], [ 115.932380676000093, 39.584064483000134 ], [ 115.929862975000219, 39.58840942400019 ], [ 115.929725646000065, 39.588645935000159 ], [ 115.925292968, 39.595054628000071 ], [ 115.919082642000035, 39.598033905000079 ], [ 115.911972046000074, 39.596664428000054 ], [ 115.904861451000102, 39.589801789000035 ], [ 115.906036376000088, 39.582248688000107 ], [ 115.906196594000221, 39.581172943000183 ], [ 115.907211304000157, 39.574466706000123 ], [ 115.903648377000081, 39.568519592000143 ], [ 115.900688171000184, 39.563713074000134 ], [ 115.888839722000057, 39.5577697760001 ], [ 115.887336730000243, 39.557655335000106 ], [ 115.879966737000018, 39.557083131000013 ], [ 115.873748780000028, 39.556396484000174 ], [ 115.864578248000157, 39.555255890000126 ], [ 115.850669861000029, 39.553195954000046 ], [ 115.840904236000142, 39.550220490000015 ], [ 115.831138611000142, 39.547473908000143 ], [ 115.824333190000061, 39.543121337000173 ], [ 115.818717957000217, 39.539001466000116 ], [ 115.813095093000015, 39.532592774000079 ], [ 115.808067323000046, 39.525955200000112 ], [ 115.806289672000162, 39.521373748000144 ], [ 115.802742003000162, 39.511989593000067 ], [ 115.792396546000077, 39.511299133000136 ], [ 115.782936095000082, 39.50946426500019 ], [ 115.773475647000168, 39.507854462000125 ], [ 115.762237548000144, 39.508762359000173 ], [ 115.750106812000126, 39.511730194000165 ], [ 115.744781495000097, 39.517673492000029 ], [ 115.74152374200014, 39.522933960999978 ], [ 115.739448547000052, 39.528427124000189 ], [ 115.737373352000077, 39.533229828 ], [ 115.735298158000319, 39.538948059 ], [ 115.729965210000159, 39.544662476000042 ], [ 115.724929810000049, 39.551296235000109 ], [ 115.717155457000104, 39.561519624000027 ], [ 115.70948028600003, 39.560394286000189 ], [ 115.704154968000125, 39.560211183000035 ], [ 115.70114898700001, 39.561019898000097 ], [ 115.696266174000016, 39.563365936000025 ], [ 115.691658020000318, 39.566181182999969 ], [ 115.687736512000015, 39.572456359000171 ], [ 115.689224244000229, 39.577316284000176 ], [ 115.689224244000229, 39.582351685000162 ], [ 115.686752320000323, 39.589138031000175 ], [ 115.684303283000077, 39.595462799000188 ], [ 115.681663512000114, 39.59979629500009 ], [ 115.673355103000063, 39.600666046000185 ], [ 115.66447448700012, 39.601104736000082 ], [ 115.658256530000017, 39.601783753 ], [ 115.64936828600014, 39.602455140000075 ], [ 115.639892577000296, 39.603355407000038 ], [ 115.608818054000039, 39.600547790000178 ], [ 115.59757232700008, 39.598464965000062 ], [ 115.590171815000076, 39.596847534000062 ], [ 115.571403503000056, 39.595809936000194 ], [ 115.568565370000329, 39.595653534000064 ], [ 115.561157227000308, 39.597236633000193 ], [ 115.55344390900018, 39.601799011000026 ], [ 115.553131104000158, 39.602127075 ], [ 115.549583435000159, 39.60590744100017 ], [ 115.543632507000211, 39.612987518000068 ], [ 115.537406922000173, 39.615486145000091 ], [ 115.521102906000124, 39.620021820000147 ], [ 115.516006470000093, 39.622058868000124 ], [ 115.514282226000091, 39.622745513000154 ], [ 115.510963441000058, 39.627655030000028 ], [ 115.510108948000152, 39.628913880000084 ], [ 115.511856080000257, 39.635097504000157 ], [ 115.507102967000037, 39.638973236000027 ], [ 115.500877381, 39.640102386000194 ], [ 115.494949340000062, 39.641914369000062 ], [ 115.48811340300017, 39.645782470000142 ], [ 115.47916412300026, 39.651470184000175 ], [ 115.475929259000168, 39.653526306000117 ], [ 115.467262268000013, 39.670204162000175 ], [ 115.470497132000219, 39.675251008000146 ], [ 115.47432708700012, 39.680751801000099 ], [ 115.475929259000168, 39.683872223000151 ], [ 115.478439332000107, 39.688777925000181 ], [ 115.482521058000088, 39.703433991000111 ], [ 115.483085632000098, 39.709384918000183 ], [ 115.484237671000074, 39.717399597999986 ], [ 115.487167358000306, 39.725189209000121 ], [ 115.484428405000131, 39.74028396600005 ], [ 115.480537415000072, 39.747364045000097 ], [ 115.470741271000065, 39.749164582000105 ], [ 115.46302032400024, 39.750057221000191 ], [ 115.454414368000016, 39.751171113000169 ], [ 115.448478698000031, 39.751838685000166 ], [ 115.438385010000275, 39.753177643000072 ], [ 115.431243897000172, 39.756126403000167 ], [ 115.42558288500004, 39.760223390000135 ], [ 115.424835205000136, 39.76094818200005 ], [ 115.421112060000041, 39.764556886000037 ], [ 115.418113708000078, 39.769580841000163 ], [ 115.41749572800029, 39.774383546000081 ], [ 115.426376342000026, 39.778533936000088 ], [ 115.432891845000086, 39.781990052000083 ], [ 115.441780091000055, 39.785224914000025 ], [ 115.452735900000221, 39.790065766000168 ], [ 115.465774536000026, 39.794914246000076 ], [ 115.47763061600017, 39.799072266 ], [ 115.486412048000034, 39.796844483000143 ], [ 115.490112304000263, 39.795906067000146 ], [ 115.497550965000187, 39.791580200000055 ], [ 115.508537292000142, 39.791839599000127 ], [ 115.521881103000055, 39.794853210000156 ], [ 115.531669616000045, 39.796482087000186 ], [ 115.53909301900012, 39.797416688000169 ], [ 115.545021057000099, 39.799263000000167 ], [ 115.552429199000244, 39.802711486000192 ], [ 115.557762146000186, 39.80524063200005 ], [ 115.562202454000044, 39.809143067000093 ], [ 115.562820435000049, 39.812519073000146 ], [ 115.563240051000207, 39.814830781000126 ], [ 115.560684203000051, 39.818977356000119 ], [ 115.551162719000104, 39.823989868000069 ], [ 115.541053773000158, 39.827167512000074 ], [ 115.533027649000246, 39.829662324000083 ], [ 115.528320312, 39.830993652000132 ], [ 115.525001526000096, 39.831928253000058 ], [ 115.512771606000115, 39.843338012000061 ], [ 115.511352539000086, 39.847656250000171 ], [ 115.510734558000195, 39.849536895000085 ], [ 115.510063171000184, 39.851566315000127 ], [ 115.51033782900015, 39.856830597000112 ], [ 115.512702942000033, 39.860954285000048 ], [ 115.515953064000314, 39.86531066900011 ], [ 115.519546508000076, 39.869590760000108 ], [ 115.520385742000258, 39.870586396000078 ], [ 115.523033141000042, 39.87722778300008 ], [ 115.517074585000159, 39.881790162000186 ], [ 115.512817383000083, 39.883911133000083 ], [ 115.510223389000089, 39.885204316000056 ], [ 115.508415221000064, 39.889999389000025 ], [ 115.509887695000202, 39.89458084100005 ], [ 115.51312255900018, 39.902370453000117 ], [ 115.511779784000169, 39.905952454000101 ], [ 115.511322022000172, 39.907169343000135 ], [ 115.508323669000106, 39.911968231000174 ], [ 115.503845215000069, 39.916072846000077 ], [ 115.497283935000041, 39.921314239000026 ], [ 115.485954284000172, 39.928146362000177 ], [ 115.47760772800018, 39.931552886000134 ], [ 115.469253541000057, 39.937244415000066 ], [ 115.461799622000171, 39.941341400000056 ], [ 115.447776795000095, 39.948844909000115 ], [ 115.43705749500009, 39.950408935000041 ], [ 115.427238465000073, 39.950832367000089 ], [ 115.421096802000193, 39.951992036000036 ], [ 115.416519165000068, 39.952854157000047 ], [ 115.413810731000126, 39.957645416000048 ], [ 115.415565490000063, 39.964290620000099 ], [ 115.4190979010001, 39.971164704000103 ], [ 115.420600891000049, 39.9732589730001 ], [ 115.424705506, 39.97896576 ], [ 115.432106018000013, 39.987228395000045 ], [ 115.436843872000168, 39.992279054000051 ], [ 115.438476562, 40.000000000999989 ], [ 115.437843322000049, 40.005409242000042 ], [ 115.438392640000075, 40.008384704000036 ], [ 115.438034058000198, 40.012493134000124 ], [ 115.437980651000089, 40.016029357000036 ], [ 115.43797302300004, 40.016605377000133 ], [ 115.438217162000115, 40.020492554000157 ], [ 115.439361573000042, 40.023929597 ], [ 115.440818786000023, 40.026233673000092 ], [ 115.442581176000203, 40.027847291000171 ], [ 115.445533752000074, 40.029701233000083 ], [ 115.448791505000031, 40.031105041000046 ], [ 115.455291747000047, 40.035278321000021 ], [ 115.460800170000084, 40.03870391900017 ], [ 115.462379456, 40.039688111000032 ], [ 115.470664977000297, 40.044101715000181 ], [ 115.477165222000167, 40.048274993000177 ], [ 115.482475281, 40.05220794700017 ], [ 115.486305238000227, 40.055900573000145 ], [ 115.49160766600005, 40.060291291000169 ], [ 115.497207641000159, 40.064907075000178 ], [ 115.504608155000028, 40.069316864000086 ], [ 115.510490418000018, 40.074825287000124 ], [ 115.514640808000081, 40.076946259000124 ], [ 115.518196107000222, 40.079032899000083 ], [ 115.522644043000014, 40.080902099000014 ], [ 115.527389526000093, 40.083000183000081 ], [ 115.531845092000026, 40.084178925000117 ], [ 115.533843995000097, 40.085998536000091 ], [ 115.535385132000215, 40.087409974000025 ], [ 115.542465209000056, 40.093410493000079 ], [ 115.545425415000068, 40.095264435000161 ], [ 115.549865723000039, 40.097816467000143 ], [ 115.55372619700006, 40.099216462000072 ], [ 115.561798095000086, 40.098144532000163 ], [ 115.565223693, 40.096866608000141 ], [ 115.565994262000231, 40.096576691000053 ], [ 115.572586061000038, 40.09457397500006 ], [ 115.577659606000111, 40.094158173000153 ], [ 115.582740784000066, 40.093513488000156 ], [ 115.586311341000055, 40.094459535 ], [ 115.589576722000174, 40.096084596000082 ], [ 115.592216491000158, 40.09930419900013 ], [ 115.592323303000057, 40.100173950000055 ], [ 115.59276580900007, 40.10365295500003 ], [ 115.593299866000166, 40.108455658000139 ], [ 115.595046998000157, 40.112125397000113 ], [ 115.5979843140002, 40.11580658000014 ], [ 115.603034973000149, 40.117904663000104 ], [ 115.606307983000079, 40.118843080000033 ], [ 115.607269286000133, 40.118606568000189 ], [ 115.611694336000141, 40.117511750000176 ], [ 115.619461060000049, 40.116889953000168 ], [ 115.62693023700001, 40.116260529000101 ], [ 115.634971619000112, 40.117919922 ], [ 115.641510010000275, 40.120029450000118 ], [ 115.648628234000057, 40.123966217000145 ], [ 115.654655456000114, 40.127162934000069 ], [ 115.65693664600019, 40.128372194000121 ], [ 115.663764953000054, 40.131622314000083 ], [ 115.667335511000033, 40.132789613000114 ], [ 115.668968200000222, 40.133491516000049 ], [ 115.673278809000067, 40.135345458000131 ], [ 115.679244996000193, 40.135848999000132 ], [ 115.682823181000231, 40.135643005000134 ], [ 115.688514710000163, 40.134315490000176 ], [ 115.695396423000147, 40.132991790000062 ], [ 115.701980591000051, 40.130981446000192 ], [ 115.709754944000224, 40.129894257000046 ], [ 115.715133668000135, 40.129699707999976 ], [ 115.723793029000035, 40.129302980000034 ], [ 115.731239318, 40.130725861000087 ], [ 115.73927307200006, 40.133747101000154 ], [ 115.744621277000192, 40.13629913300008 ], [ 115.749946594000335, 40.14067840600012 ], [ 115.753791809000063, 40.144588471000077 ], [ 115.755256653000174, 40.147567748000142 ], [ 115.754028320000202, 40.150756835000095 ], [ 115.752784730000144, 40.152763367000034 ], [ 115.751907349000135, 40.154170990000068 ], [ 115.750976563000222, 40.15759658800016 ], [ 115.750938416000167, 40.161479950000171 ], [ 115.752983094000228, 40.165836334000176 ], [ 115.754341125000224, 40.166641235000043 ], [ 115.759216309000067, 40.16953277500005 ], [ 115.767242432000216, 40.173698425000111 ], [ 115.77110290600001, 40.176464080000017 ], [ 115.775238037, 40.178173065000124 ], [ 115.776161193, 40.178554535000103 ], [ 115.778556825000123, 40.178112030000136 ], [ 115.780967713000109, 40.175842286000091 ], [ 115.781242371000076, 40.175273896000135 ], [ 115.782180787000129, 40.173336028000051 ], [ 115.783401489000084, 40.170829773000037 ], [ 115.784317017000149, 40.169006348000096 ], [ 115.784934999000143, 40.166725159000066 ], [ 115.785865785000055, 40.162616731000128 ], [ 115.787101745000314, 40.158740997000109 ], [ 115.789512634000062, 40.156013489000031 ], [ 115.792221070000096, 40.154201507000039 ], [ 115.794845581000118, 40.15341568000008 ], [ 115.79670715300017, 40.152858734 ], [ 115.80209350500013, 40.151748657000098 ], [ 115.807479858000193, 40.150638580000191 ], [ 115.810195923000151, 40.148963929000104 ], [ 115.810783385000036, 40.148601532000043 ], [ 115.815895080000018, 40.144519806000176 ], [ 115.822502137000015, 40.140216829000053 ], [ 115.826393127000074, 40.139095306000058 ], [ 115.835044862000132, 40.139831543000128 ], [ 115.839210510000157, 40.141914368000073 ], [ 115.843368530000134, 40.143993378000118 ], [ 115.8445434570001, 40.146514894000063 ], [ 115.846900940000182, 40.149955750000174 ], [ 115.844779968000012, 40.153602601000046 ], [ 115.843864440000061, 40.156566620000035 ], [ 115.843528747000164, 40.160221101000161 ], [ 115.842605591000165, 40.164100648000101 ], [ 115.839271545000315, 40.169567109000013 ], [ 115.837730408000084, 40.174587250000172 ], [ 115.838302612, 40.178016663000164 ], [ 115.84066772500023, 40.180545806000055 ], [ 115.845123292000039, 40.183998108000083 ], [ 115.84779357900004, 40.186069490000079 ], [ 115.855529784000055, 40.189311982000106 ], [ 115.861778260000278, 40.192546844000049 ], [ 115.868927002000078, 40.195102691000045 ], [ 115.87249755900018, 40.197635652000145 ], [ 115.875144958000078, 40.202449800000181 ], [ 115.874214172000052, 40.207015991000048 ], [ 115.872673035000162, 40.212718964000032 ], [ 115.873237609000171, 40.216838837000125 ], [ 115.875007629000038, 40.21981811600017 ], [ 115.878280640000071, 40.222122192000029 ], [ 115.882446288000097, 40.224430085000108 ], [ 115.886306762000117, 40.226963044000172 ], [ 115.892272949000017, 40.228824616 ], [ 115.898811340000066, 40.233882905000144 ], [ 115.902954102000308, 40.240077973000041 ], [ 115.906806945000199, 40.244213104000153 ], [ 115.911567688000332, 40.247207642000092 ], [ 115.916030884000179, 40.250198365000017 ], [ 115.919609070000092, 40.251590730000032 ], [ 115.926483154000039, 40.252079011000035 ], [ 115.933662415000185, 40.252117157000157 ], [ 115.939048768000021, 40.251686097 ], [ 115.94382476900023, 40.252624511000022 ], [ 115.947998047000056, 40.255157470000086 ], [ 115.950378419000117, 40.257225037000183 ], [ 115.951858521000077, 40.259059905000129 ], [ 115.955131531, 40.261817932000156 ], [ 115.951499939000087, 40.267971040000191 ], [ 115.949340820000202, 40.277103423000028 ], [ 115.94660186700014, 40.28371810800013 ], [ 115.944458009000073, 40.290336608000075 ], [ 115.941436767000027, 40.294662476000099 ], [ 115.938423156000113, 40.298076631000072 ], [ 115.93419647300027, 40.30262756400009 ], [ 115.928779602000191, 40.307170867000025 ], [ 115.924560547000056, 40.31126403900015 ], [ 115.922126770000204, 40.316051483000138 ], [ 115.919403077000197, 40.320606232000159 ], [ 115.919662475000109, 40.325866698000027 ], [ 115.918724060000045, 40.331573486000025 ], [ 115.918083191000051, 40.33660125800003 ], [ 115.915039063000222, 40.343898773000092 ], [ 115.910514831000341, 40.347988130000147 ], [ 115.905967713000223, 40.354595184000061 ], [ 115.900245667000149, 40.35890579200003 ], [ 115.895141601000091, 40.360023499000079 ], [ 115.889183044000106, 40.356105805000084 ], [ 115.885894775000224, 40.354946136000137 ], [ 115.881111145000204, 40.354690552000136 ], [ 115.87511444200004, 40.355117799000027 ], [ 115.870903015000067, 40.356693268000129 ], [ 115.86640167100029, 40.358264924000139 ], [ 115.862167358000193, 40.362815857000157 ], [ 115.857940675000123, 40.367134094000164 ], [ 115.85340118400029, 40.371910096000079 ], [ 115.847679139000206, 40.375762939000083 ], [ 115.841964721000068, 40.378471376000107 ], [ 115.837142945000096, 40.381645202000186 ], [ 115.83172607400013, 40.384124756000176 ], [ 115.827507019000222, 40.386615753000115 ], [ 115.822982789000093, 40.390247345000034 ], [ 115.819038392000039, 40.395477295000035 ], [ 115.814788818000125, 40.401168824000138 ], [ 115.812942504000148, 40.406642912999985 ], [ 115.810195923000151, 40.411655426000038 ], [ 115.80746460000023, 40.415977478000059 ], [ 115.804138184000067, 40.419158935000155 ], [ 115.799598694000224, 40.423019408000073 ], [ 115.790550232000101, 40.428676606000067 ], [ 115.78391265800019, 40.433433534000017 ], [ 115.775169373000153, 40.438179016000106 ], [ 115.76974487200016, 40.440887451000094 ], [ 115.766105652000078, 40.444519043000014 ], [ 115.761840819000099, 40.451576234000129 ], [ 115.760597228000165, 40.455684662000067 ], [ 115.762039184000059, 40.461635590000071 ], [ 115.764083862, 40.467819215000191 ], [ 115.766418456000224, 40.474235536000037 ], [ 115.769645690000061, 40.481571197000108 ], [ 115.770195008000087, 40.486827851000044 ], [ 115.77046203600014, 40.490718841000103 ], [ 115.766822815000069, 40.494121551999967 ], [ 115.758392335000053, 40.497268677000079 ], [ 115.753280640000185, 40.497463226999969 ], [ 115.747589111000025, 40.496513367000091 ], [ 115.739807129000269, 40.494632721000073 ], [ 115.735610962000123, 40.49391937300004 ], [ 115.731987000000117, 40.495494842000085 ], [ 115.730773926000097, 40.497085571000184 ], [ 115.729850770000098, 40.499134065000192 ], [ 115.72922515800019, 40.501873016000104 ], [ 115.730384827000307, 40.50599670400004 ], [ 115.732734680000135, 40.511039735000111 ], [ 115.735969544000113, 40.517463684000063 ], [ 115.737129211000024, 40.521583557000156 ], [ 115.741554261000033, 40.529384613000104 ], [ 115.744812011000135, 40.533519746000024 ], [ 115.752243042000146, 40.541339875000176 ], [ 115.760604859000182, 40.546882630000084 ], [ 115.765670776000206, 40.551258087000178 ], [ 115.771034240000063, 40.555175781000116 ], [ 115.774627686000031, 40.557025910000164 ], [ 115.778526306000344, 40.557735443000183 ], [ 115.783325196000078, 40.558681488 ], [ 115.788139344000115, 40.557567596000069 ], [ 115.792037964000087, 40.558277131000068 ], [ 115.798027040000193, 40.560371399000132 ], [ 115.802223206000122, 40.561996461000092 ], [ 115.807014466000055, 40.564083099000129 ], [ 115.811187744000222, 40.567539215000068 ], [ 115.81327056900011, 40.569377899000131 ], [ 115.815063476000091, 40.571216583000023 ], [ 115.816825866000045, 40.575115203000053 ], [ 115.816497803000061, 40.578311920000147 ], [ 115.815872193000132, 40.581279754000036 ], [ 115.816452026000093, 40.583797455000024 ], [ 115.817329407000102, 40.586315155000193 ], [ 115.820014953000054, 40.58816146900017 ], [ 115.823616029000164, 40.589553834000185 ], [ 115.826911926000093, 40.590717316000166 ], [ 115.831413269000109, 40.591197969000063 ], [ 115.836822510000275, 40.591915130000132 ], [ 115.842834472000163, 40.59149170000012 ], [ 115.848541259000058, 40.591751100000067 ], [ 115.854858398000033, 40.592018127000074 ], [ 115.860862732000214, 40.59251022300009 ], [ 115.866271973000039, 40.593223572000056 ], [ 115.870773316000054, 40.594161988000053 ], [ 115.873764039000207, 40.595779419000053 ], [ 115.877349854000158, 40.598770141000045 ], [ 115.879127503000063, 40.601524353000059 ], [ 115.880020142000035, 40.603355408000084 ], [ 115.88330078100023, 40.606803895000041 ], [ 115.885986329000161, 40.608642579000161 ], [ 115.893775939000079, 40.612342835000049 ], [ 115.899772645000098, 40.615116120000096 ], [ 115.90457153300008, 40.616970062 ], [ 115.909072876000323, 40.617679597 ], [ 115.912986754000144, 40.617469788000164 ], [ 115.916900635000047, 40.616806031000067 ], [ 115.922019958000078, 40.615459443000191 ], [ 115.9265518200001, 40.61319732700008 ], [ 115.934104919000333, 40.608661652000194 ], [ 115.938629151000214, 40.605941772000051 ], [ 115.94767761200012, 40.602329255000029 ], [ 115.951599121000072, 40.600517273000037 ], [ 115.95612335300018, 40.598255157000096 ], [ 115.960952759000065, 40.595077516000174 ], [ 115.965484619000222, 40.592811585000163 ], [ 115.966705322000053, 40.589160919000108 ], [ 115.967025757000215, 40.587104797000165 ], [ 115.967636108000193, 40.584819795000101 ], [ 115.970367431000113, 40.581176757000094 ], [ 115.97518157900015, 40.58005523700001 ], [ 115.979698180000014, 40.579391481000187 ], [ 115.985404968000012, 40.580101013999979 ], [ 115.989303588000212, 40.581031800000119 ], [ 115.992301941000051, 40.582874299000025 ], [ 115.995590210000046, 40.585403442000143 ], [ 115.998878479000155, 40.587932586000136 ], [ 116.002174378000063, 40.590461732000165 ], [ 116.005172729000037, 40.591846467000096 ], [ 116.008171082000104, 40.59323120200014 ], [ 116.012664795000205, 40.594619752000142 ], [ 116.019271850000223, 40.596935273000099 ], [ 116.027076721000185, 40.598335266000049 ], [ 116.035781861000146, 40.600883485000111 ], [ 116.041786194000338, 40.602737427000022 ], [ 116.045989989000077, 40.604125977000194 ], [ 116.051086426000325, 40.605972291000171 ], [ 116.058601380000027, 40.606914520000089 ], [ 116.065811158000088, 40.608314514000085 ], [ 116.070617676000097, 40.60901641900017 ], [ 116.081138611000029, 40.609970093000186 ], [ 116.09014129600007, 40.613658906000126 ], [ 116.097351074000017, 40.614826203000177 ], [ 116.103950500000224, 40.618278503 ], [ 116.10725402800017, 40.620574951000151 ], [ 116.108749390000071, 40.622406006 ], [ 116.109336853000286, 40.62492370700005 ], [ 116.109329224000135, 40.626754760000154 ], [ 116.108718871000178, 40.628810884000075 ], [ 116.10720062200005, 40.631088258000034 ], [ 116.10598754800003, 40.634513856000126 ], [ 116.107154845000082, 40.641143799000076 ], [ 116.107734680000021, 40.646633149000081 ], [ 116.109222412, 40.650753022000117 ], [ 116.11220550500002, 40.656017304000159 ], [ 116.11580658000014, 40.658775330000083 ], [ 116.119110108000086, 40.660614014000146 ], [ 116.124214172000165, 40.661998749000077 ], [ 116.127830506, 40.661327363000112 ], [ 116.133552552000083, 40.65974426300005 ], [ 116.139572144000113, 40.65999221800007 ], [ 116.146781922000059, 40.662528992000148 ], [ 116.154296874000011, 40.666206361000036 ], [ 116.156089783000084, 40.669410706000065 ], [ 116.156684876000213, 40.671699524000076 ], [ 116.157272339000087, 40.675128937000068 ], [ 116.158149720000097, 40.681072235000102 ], [ 116.156318664000082, 40.687469483000086 ], [ 116.155082703000062, 40.695922851000148 ], [ 116.157173157000216, 40.700271607000047 ], [ 116.163177490000066, 40.706459045000088 ], [ 116.169784545000084, 40.709907532000045 ], [ 116.17520141600005, 40.712436675000106 ], [ 116.180915832000096, 40.714736938000101 ], [ 116.189636230000133, 40.717731476000097 ], [ 116.198364257000094, 40.720497131000059 ], [ 116.202575684000067, 40.723937989000149 ], [ 116.20497131400009, 40.726913453000122 ], [ 116.205871581000224, 40.729660035000052 ], [ 116.207069397000055, 40.73194885200013 ], [ 116.208854676000215, 40.737895966000167 ], [ 116.211845398000037, 40.744758607000165 ], [ 116.215446472000281, 40.749797821000186 ], [ 116.218452453000054, 40.753917694000108 ], [ 116.220550537000122, 40.758037567000031 ], [ 116.221145629000148, 40.761009216000105 ], [ 116.222335815000065, 40.764900208000029 ], [ 116.223838806000117, 40.768329621000191 ], [ 116.225334168000018, 40.77084732000003 ], [ 116.225326538000104, 40.77381896900016 ], [ 116.225616456000125, 40.777706146000185 ], [ 116.225914000000216, 40.78113555900012 ], [ 116.22771453900009, 40.784339905000081 ], [ 116.232231141000057, 40.786865235000107 ], [ 116.237648010000157, 40.788246155000138 ], [ 116.240966798000159, 40.788024902000018 ], [ 116.244590760000165, 40.787345885999969 ], [ 116.248512269000116, 40.785072325999977 ], [ 116.253044129000159, 40.782108307000158 ], [ 116.259689331000118, 40.776863099000138 ], [ 116.265426637000019, 40.772533416000101 ], [ 116.269653320000089, 40.768653870000094 ], [ 116.273880005000137, 40.76386261000016 ], [ 116.279617309000059, 40.758159638000052 ], [ 116.283843995000097, 40.756565095000042 ], [ 116.288368224000124, 40.755889894 ], [ 116.293785096000306, 40.75749969400016 ], [ 116.296493530000021, 40.761157990000186 ], [ 116.30161285500003, 40.76414108299997 ], [ 116.305526733000079, 40.767349243000069 ], [ 116.30763244700006, 40.769405365000182 ], [ 116.312454223000032, 40.772155761000192 ], [ 116.318176269000105, 40.773307800000055 ], [ 116.323608398000033, 40.773773194000171 ], [ 116.330841065000072, 40.772411346000126 ], [ 116.339889526000093, 40.77151107800006 ], [ 116.351043701000094, 40.769924164000031 ], [ 116.358879089000197, 40.769245147000049 ], [ 116.369125366000048, 40.770401001000153 ], [ 116.374549865000063, 40.772006989000147 ], [ 116.378768921000074, 40.774524689000089 ], [ 116.386909484000171, 40.777961731000062 ], [ 116.392936707000104, 40.781623840000123 ], [ 116.399871827000197, 40.784599304000096 ], [ 116.404701233000083, 40.785060883000028 ], [ 116.407714844000111, 40.784378051000033 ], [ 116.410423279000156, 40.7825469980001 ], [ 116.410728455000026, 40.780719757000043 ], [ 116.410423279000156, 40.777748108000083 ], [ 116.410125732000097, 40.772262574000081 ], [ 116.411628723000035, 40.76906204300019 ], [ 116.413139343000012, 40.767238618000022 ], [ 116.416450501000213, 40.765411377000135 ], [ 116.422180175000221, 40.763584137000123 ], [ 116.429718018000131, 40.763130188000105 ], [ 116.436950684000067, 40.764278412000067 ], [ 116.442977904000145, 40.765422821000186 ], [ 116.44960785, 40.76771164000013 ], [ 116.45292663500004, 40.769767762000072 ], [ 116.454139710000163, 40.773654939000096 ], [ 116.456855774000019, 40.77662658800017 ], [ 116.457458495000196, 40.778457641000102 ], [ 116.458061218000239, 40.780284881999989 ], [ 116.457763672000169, 40.78256988600009 ], [ 116.457763672000169, 40.785083772000064 ], [ 116.45595550500002, 40.787826538000161 ], [ 116.454452514000081, 40.790111542000034 ], [ 116.450836182000216, 40.793537140000126 ], [ 116.445106506000229, 40.797653197999978 ], [ 116.436973573000273, 40.807018280000193 ], [ 116.429435730000023, 40.813873291000107 ], [ 116.422500610000156, 40.81775665300006 ], [ 116.413146974000028, 40.822551728000064 ], [ 116.405601501000319, 40.828033447000053 ], [ 116.398063660000048, 40.833511353000119 ], [ 116.392326356000012, 40.839450837000072 ], [ 116.384178161000023, 40.849269867000146 ], [ 116.377838134000058, 40.856349946000194 ], [ 116.372398377000081, 40.862747193000075 ], [ 116.366661071000181, 40.868453979000094 ], [ 116.358200074000024, 40.874385834000179 ], [ 116.35276794400022, 40.877353668000069 ], [ 116.343093871000065, 40.886943817000144 ], [ 116.336448670000323, 40.891735077000078 ], [ 116.331008910000037, 40.894699096000124 ], [ 116.326774597000053, 40.900177002000021 ], [ 116.324348450000116, 40.904289245000029 ], [ 116.323440553000069, 40.909088135000047 ], [ 116.324638366000158, 40.914573669999982 ], [ 116.326438903000167, 40.922805786000083 ], [ 116.330360412000232, 40.929668427000081 ], [ 116.334892272000161, 40.9351615920001 ], [ 116.34093475300017, 40.93791198800011 ], [ 116.348785400000224, 40.938606263000111 ], [ 116.353927612000234, 40.939525604000039 ], [ 116.357551574000013, 40.939762115000178 ], [ 116.361175536000019, 40.939537049000194 ], [ 116.364807129000042, 40.938396454000042 ], [ 116.368736268000021, 40.93634414700017 ], [ 116.371154786000261, 40.93268585300018 ], [ 116.373573304000047, 40.928806304000091 ], [ 116.375389099000017, 40.924922944000116 ], [ 116.377204895000204, 40.920806884000058 ], [ 116.378417969000225, 40.917152405000138 ], [ 116.382041931000231, 40.912124635000112 ], [ 116.383857727000191, 40.908016205000195 ], [ 116.385971070000096, 40.905960083000082 ], [ 116.392318725000337, 40.902992249000192 ], [ 116.401977538000097, 40.900714875000062 ], [ 116.408927918000131, 40.90003204300001 ], [ 116.413154602000077, 40.899578094000049 ], [ 116.416175843000019, 40.89981079100005 ], [ 116.42101287800017, 40.900497437000183 ], [ 116.426147461000028, 40.900043489000097 ], [ 116.430976867000027, 40.899589540000079 ], [ 116.437019348000035, 40.898677827000085 ], [ 116.441246033000084, 40.89662170400004 ], [ 116.448791504000155, 40.892967225000064 ], [ 116.454528808000191, 40.892284393000068 ], [ 116.459365845000093, 40.892513276000102 ], [ 116.464195251000206, 40.893882752000081 ], [ 116.468429565000065, 40.898231506000172 ], [ 116.469337464000091, 40.901199341000165 ], [ 116.469345092000026, 40.905315399000187 ], [ 116.468742371000189, 40.910114288000159 ], [ 116.467239381000013, 40.914913178 ], [ 116.463012695000089, 40.919483185000047 ], [ 116.45969390800019, 40.924972534000119 ], [ 116.455467224000017, 40.931369782000047 ], [ 116.449432374000025, 40.938682557 ], [ 116.446105958000317, 40.942794800000172 ], [ 116.443695068000011, 40.948966981000069 ], [ 116.442489624000018, 40.955139160000158 ], [ 116.440071106, 40.962451936000036 ], [ 116.440383910000264, 40.969535828000119 ], [ 116.444313049000016, 40.975482941000053 ], [ 116.450973511000143, 40.978912354000045 ], [ 116.458534241000052, 40.978916169000058 ], [ 116.464279175000229, 40.978687286000024 ], [ 116.469413758000087, 40.978004457000111 ], [ 116.478485108000086, 40.976173401000153 ], [ 116.486351014000093, 40.975719452000135 ], [ 116.494209290000299, 40.976402282000151 ], [ 116.502983093000012, 40.978687286000024 ], [ 116.511154174000239, 40.981201172000056 ], [ 116.517509461000031, 40.983940125000061 ], [ 116.523262024000019, 40.986454010000159 ], [ 116.530220032000216, 40.988277436000033 ], [ 116.538085938000108, 40.988044740000134 ], [ 116.545646668000131, 40.987815857000157 ], [ 116.554107667000039, 40.985752105000074 ], [ 116.560455322000053, 40.982776643000079 ], [ 116.565589905000024, 40.98048782300009 ], [ 116.57072448800011, 40.978424072000109 ], [ 116.575256348000039, 40.975681305000137 ], [ 116.580696105000129, 40.975444794000168 ], [ 116.584022521000179, 40.976585388000046 ], [ 116.587051391000159, 40.977725984000074 ], [ 116.5894775390002, 40.978866577000076 ], [ 116.593109132000336, 40.98138046300005 ], [ 116.597061157000212, 40.987773895000032 ], [ 116.601325989000088, 40.996227266 ], [ 116.605583191000164, 41.00445175100009 ], [ 116.608024598000043, 41.010395050000056 ], [ 116.609855652000078, 41.015419007000162 ], [ 116.610473633000083, 41.019531250000171 ], [ 116.608970642000031, 41.024105072000054 ], [ 116.60596466100003, 41.028682709000179 ], [ 116.603248597000061, 41.033027650000065 ], [ 116.60084533700001, 41.039199829000154 ], [ 116.600860595000199, 41.043315887000176 ], [ 116.606636048000155, 41.051307679000047 ], [ 116.613616943000125, 41.056327820000035 ], [ 116.620590210000046, 41.058609009000065 ], [ 116.629371643000013, 41.059284211000147 ], [ 116.636032105000027, 41.058361055000148 ], [ 116.64147186300022, 41.05583572400019 ], [ 116.649024964000319, 41.052856445000145 ], [ 116.657188415000178, 41.04895782400007 ], [ 116.666252137000129, 41.045055389000026 ], [ 116.671394348000035, 41.043907165000064 ], [ 116.67713165400005, 41.040924073000156 ], [ 116.681655884000179, 41.037258148000149 ], [ 116.687088013000107, 41.032451631000072 ], [ 116.689483643000244, 41.027416230000085 ], [ 116.687347413000111, 41.022621155000081 ], [ 116.685218811000027, 41.020111085000053 ], [ 116.684600829000033, 41.01713943600015 ], [ 116.683685303000289, 41.015083314000037 ], [ 116.683364868000012, 41.011428833000082 ], [ 116.677879334000181, 41.002292633000138 ], [ 116.672706604000041, 40.995674133000193 ], [ 116.670875549000016, 40.991790773000048 ], [ 116.66843414400023, 40.986309051000148 ], [ 116.667503358000317, 40.980369568000128 ], [ 116.666885376000209, 40.976711274000138 ], [ 116.668670655000028, 40.970539092000195 ], [ 116.671066285000165, 40.964591981000069 ], [ 116.673454284000286, 40.957271576000039 ], [ 116.676757812000119, 40.95086670000012 ], [ 116.681259155000134, 40.944229127000085 ], [ 116.687889098000028, 40.940101623000032 ], [ 116.697555541000042, 40.93780136100014 ], [ 116.706008912000016, 40.935726166000109 ], [ 116.709022521000065, 40.934120178000114 ], [ 116.710823060000052, 40.932060241999977 ], [ 116.712020874000132, 40.928855896000073 ], [ 116.712005616000056, 40.926570892000029 ], [ 116.711692811000034, 40.923828126000103 ], [ 116.710769653000057, 40.919944764000149 ], [ 116.711044311000023, 40.914001465000183 ], [ 116.711318971000196, 40.909202576000041 ], [ 116.713111877000074, 40.904396058000088 ], [ 116.715507507000211, 40.90096282900015 ], [ 116.720024109000178, 40.89821243300014 ], [ 116.726959229000045, 40.894996642000024 ], [ 116.733291626000209, 40.892467499000134 ], [ 116.74353790300006, 40.888557435000109 ], [ 116.749565125000117, 40.886947632000044 ], [ 116.75649261500007, 40.883728027000188 ], [ 116.766136170000095, 40.879135132000044 ], [ 116.770950318000018, 40.877063752000083 ], [ 116.776962280000021, 40.872478485000045 ], [ 116.782073974000014, 40.868122101000154 ], [ 116.785362243000122, 40.862854004000098 ], [ 116.786239624000132, 40.858509065000078 ], [ 116.786224366000056, 40.855995179000047 ], [ 116.785308838000219, 40.853481291999969 ], [ 116.785285950000116, 40.849143981000054 ], [ 116.787071228000173, 40.845706940000127 ], [ 116.791580200000226, 40.842723848000048 ], [ 116.797012329000154, 40.842025757000101 ], [ 116.80424499500009, 40.841316224000138 ], [ 116.810890197000049, 40.841297151000049 ], [ 116.818435668, 40.841503143000011 ], [ 116.824768067000036, 40.841030121000131 ], [ 116.83230590800008, 40.840320588000168 ], [ 116.838027954000154, 40.838016510000102 ], [ 116.846138001000213, 40.832962036000083 ], [ 116.853034974000025, 40.826538087000131 ], [ 116.859024047000048, 40.81989288300008 ], [ 116.865005493000012, 40.813243866000164 ], [ 116.870407105000027, 40.808650971000191 ], [ 116.877311707000217, 40.804286957000045 ], [ 116.879699706000224, 40.801536560000159 ], [ 116.880889892000255, 40.798786164000148 ], [ 116.882575989000088, 40.796848297999986 ], [ 116.884475708000082, 40.793975831000125 ], [ 116.885658265000188, 40.791000367000095 ], [ 116.886825562000013, 40.786197662 ], [ 116.889213562000123, 40.782760620000033 ], [ 116.891601562, 40.779548645000091 ], [ 116.894302368000012, 40.777938842000026 ], [ 116.900321960000156, 40.776088715000185 ], [ 116.904525757000215, 40.77470016500007 ], [ 116.908439636000139, 40.773315430000139 ], [ 116.912651063000112, 40.772613525000054 ], [ 116.915039062000119, 40.769176484000184 ], [ 116.916221618000122, 40.766658783000139 ], [ 116.916809082000213, 40.764598847000059 ], [ 116.917991638000217, 40.76139450200003 ], [ 116.918869019000226, 40.75819015400009 ], [ 116.918533326000215, 40.754306794000115 ], [ 116.91851806700015, 40.751792907000038 ], [ 116.920585632000211, 40.746982574000072 ], [ 116.924476624000135, 40.743541718000074 ], [ 116.928665161000026, 40.739181518000123 ], [ 116.933731078000051, 40.732990266000172 ], [ 116.941505432000099, 40.725185395000153 ], [ 116.9507827770002, 40.718521118000069 ], [ 116.955261230000133, 40.713703157000111 ], [ 116.963951111000142, 40.708408356000177 ], [ 116.969650269000113, 40.705638886000145 ], [ 116.97593689100006, 40.70149994000019 ], [ 116.985832214000084, 40.697113037 ], [ 116.994232178000175, 40.692958832000102 ], [ 117.001747130000012, 40.691555024000138 ], [ 117.009574890000067, 40.691745758000138 ], [ 117.018302918000131, 40.691936492000082 ], [ 117.025840759000062, 40.693042756000125 ], [ 117.033683777000078, 40.69460296699998 ], [ 117.041236878000177, 40.696620941000162 ], [ 117.050888061000023, 40.69817352400014 ], [ 117.059623717000136, 40.698814392000031 ], [ 117.065948486000025, 40.698554992000084 ], [ 117.072578429000032, 40.699436188000163 ], [ 117.080116272000055, 40.700080871000125 ], [ 117.086730957000213, 40.699588776000155 ], [ 117.097274779000031, 40.699760436000133 ], [ 117.103286743000126, 40.699043275000065 ], [ 117.110206605000144, 40.698547364000149 ], [ 117.120758057000103, 40.699401857000055 ], [ 117.12709045400004, 40.700279236000085 ], [ 117.133430481, 40.70161438000008 ], [ 117.140663147000168, 40.701801299000181 ], [ 117.149070739000194, 40.700149537000073 ], [ 117.15327453600014, 40.698524476000046 ], [ 117.157463074000134, 40.696670532000098 ], [ 117.161056518000237, 40.69482040500003 ], [ 117.175186157000098, 40.691802978000055 ], [ 117.179092408000088, 40.690872192000143 ], [ 117.182998656000109, 40.690174102000128 ], [ 117.188705444000334, 40.68923187300004 ], [ 117.193511963000219, 40.688068391000058 ], [ 117.19861602800006, 40.686904906000166 ], [ 117.204017639000085, 40.685504913000045 ], [ 117.210617065000065, 40.683647156000063 ], [ 117.216918945000202, 40.681789399000138 ], [ 117.224723816000164, 40.679924012000072 ], [ 117.233123780000028, 40.677829743000075 ], [ 117.242729187, 40.675266266000108 ], [ 117.249328614000092, 40.673633577000146 ], [ 117.25473785500003, 40.672466277000183 ], [ 117.261039733000302, 40.671062469000049 ], [ 117.26493835500014, 40.669670106000183 ], [ 117.270622254000159, 40.666896821000137 ], [ 117.274513244000218, 40.665046692000089 ], [ 117.278709411000023, 40.663192750000178 ], [ 117.281700134000062, 40.661350251000044 ], [ 117.286178589000201, 40.658580781000069 ], [ 117.290977478000173, 40.656955720000155 ], [ 117.294578552000075, 40.656021119 ], [ 117.297874451000325, 40.655319214000144 ], [ 117.302383423000038, 40.654609680000192 ], [ 117.305984497000054, 40.653903962000072 ], [ 117.311096191000047, 40.654335022000055 ], [ 117.321029664000093, 40.655197143000066 ], [ 117.322540283000194, 40.655879975000062 ], [ 117.32525634700005, 40.657234193000193 ], [ 117.328285217000143, 40.659049988000049 ], [ 117.330398560000162, 40.660182954000049 ], [ 117.33433532700019, 40.662452698000038 ], [ 117.3394775390002, 40.665626527000029 ], [ 117.344909668000128, 40.667430879000108 ], [ 117.350341797000056, 40.669002533000139 ], [ 117.355766297000059, 40.670574188000046 ], [ 117.364219665000064, 40.673046112000122 ], [ 117.370559692000029, 40.675071717000094 ], [ 117.375076294000223, 40.675960541000109 ], [ 117.380798340000069, 40.676841737000188 ], [ 117.386825562000126, 40.677722931000119 ], [ 117.392250061000141, 40.678607940000063 ], [ 117.396469117000038, 40.679267883000193 ], [ 117.401885986000138, 40.679695129000038 ], [ 117.409400940000182, 40.679191590000187 ], [ 117.415412902000071, 40.678470611000137 ], [ 117.420814515000302, 40.677745819000052 ], [ 117.426818849000256, 40.676795960000049 ], [ 117.43372345000023, 40.675609589000032 ], [ 117.439125061000141, 40.67465973000003 ], [ 117.44363403400007, 40.674400330000083 ], [ 117.450241089000087, 40.673442840000064 ], [ 117.456848144000219, 40.672714234000182 ], [ 117.464355468, 40.671749116000115 ], [ 117.470664978000173, 40.671249390000128 ], [ 117.475479126000096, 40.671218871000178 ], [ 117.47969055100009, 40.671421051000038 ], [ 117.488243102000069, 40.670795441000166 ], [ 117.496002198000156, 40.665336608000132 ], [ 117.495025635000047, 40.660774232000108 ], [ 117.494682311000247, 40.658489227000132 ], [ 117.494583129000034, 40.652549744000112 ], [ 117.496597291000057, 40.647045136000145 ], [ 117.497749328000054, 40.644062043000133 ], [ 117.499198913000214, 40.640392304000159 ], [ 117.497062683000195, 40.638584137 ], [ 117.495223999000132, 40.636768342000153 ], [ 117.492797851000091, 40.635875702000192 ], [ 117.488586426000097, 40.635456085000044 ], [ 117.484672547000173, 40.635494232000099 ], [ 117.481674194000334, 40.63597870000018 ], [ 117.475662232000104, 40.636486054000102 ], [ 117.469963073000258, 40.637451172000169 ], [ 117.463104249000139, 40.64139556900011 ], [ 117.456871032000208, 40.646480560000157 ], [ 117.453300477000084, 40.64879608300015 ], [ 117.446434021000186, 40.65228271400008 ], [ 117.44191741900022, 40.652320863000114 ], [ 117.438606261000018, 40.651893616 ], [ 117.436157226000091, 40.649627687000191 ], [ 117.434013366000045, 40.646903991999977 ], [ 117.428466796000066, 40.638721466000106 ], [ 117.424163819000114, 40.632816314000024 ], [ 117.420761108000079, 40.626899719000107 ], [ 117.418846130000247, 40.619831086000147 ], [ 117.419090271000073, 40.616168975999983 ], [ 117.421112061000031, 40.610897065000188 ], [ 117.423759460000042, 40.607219697000176 ], [ 117.427001952000069, 40.603305816000102 ], [ 117.430259705000026, 40.599620819000108 ], [ 117.434104920000095, 40.595932008000148 ], [ 117.437309265000181, 40.589046478000114 ], [ 117.43873596200001, 40.584465026000146 ], [ 117.438667297000052, 40.580123902000139 ], [ 117.437736511000139, 40.578071594000107 ], [ 117.433799743, 40.57627487200017 ], [ 117.427452088000337, 40.574043275000179 ], [ 117.422615052000197, 40.572486877000188 ], [ 117.417808532000208, 40.572525024000015 ], [ 117.41240692100007, 40.573028565000072 ], [ 117.407287598000153, 40.572612763000109 ], [ 117.40096283000014, 40.571750640000118 ], [ 117.394630433000088, 40.570201875000123 ], [ 117.389190673000144, 40.567958832000045 ], [ 117.382850646000065, 40.566181184000072 ], [ 117.378028870000094, 40.565078735000043 ], [ 117.373817443, 40.564884186000029 ], [ 117.369911194000224, 40.565368653000064 ], [ 117.367225646000065, 40.566303253000115 ], [ 117.364540100000113, 40.567470550000166 ], [ 117.360954285000162, 40.568870545000095 ], [ 117.355262756000229, 40.570514680000144 ], [ 117.349266052000189, 40.571472167000081 ], [ 117.341804505000027, 40.574733735000109 ], [ 117.334014893000131, 40.576622009000175 ], [ 117.326515198000152, 40.577590944000178 ], [ 117.320800781000116, 40.577632904000097 ], [ 117.313583375, 40.577228547000118 ], [ 117.306678772000055, 40.577968597000051 ], [ 117.299758912000016, 40.577331544000174 ], [ 117.290397644000109, 40.57396697900009 ], [ 117.282829284000059, 40.570137024000189 ], [ 117.274955750000231, 40.565624238000169 ], [ 117.268005372000175, 40.562702179000041 ], [ 117.259239196000067, 40.558647156000177 ], [ 117.252586364000308, 40.555721284000072 ], [ 117.245033263000209, 40.55257415900013 ], [ 117.23838043100011, 40.549186708000093 ], [ 117.23534393400007, 40.546466828000121 ], [ 117.232589722000284, 40.542598724000186 ], [ 117.233146668000018, 40.539169311000194 ], [ 117.234886170000095, 40.533897399000068 ], [ 117.237541199000248, 40.530452728000114 ], [ 117.243507386000033, 40.527214051000101 ], [ 117.247383118000016, 40.524669647000053 ], [ 117.248855592000041, 40.522834778 ], [ 117.250320435000162, 40.519622803000118 ], [ 117.249382019000109, 40.516887664000194 ], [ 117.246643066000047, 40.514392853000118 ], [ 117.244239808000202, 40.51372146600005 ], [ 117.239425660000165, 40.513298036000037 ], [ 117.235832214000197, 40.513778686000194 ], [ 117.232536315000061, 40.51471328700012 ], [ 117.228042602000073, 40.515659332000155 ], [ 117.221145631000127, 40.515933990000178 ], [ 117.215423583000074, 40.514827728000114 ], [ 117.211509705000026, 40.513710023000101 ], [ 117.208496093000122, 40.51281738300014 ], [ 117.204246522000176, 40.509414674000027 ], [ 117.199401855000133, 40.505790712000021 ], [ 117.196647643, 40.501464844000054 ], [ 117.19509124800004, 40.496902465000119 ], [ 117.196235656000113, 40.492324829000097 ], [ 117.198287965000191, 40.488651276000155 ], [ 117.200050355000144, 40.485214233000079 ], [ 117.203292847000171, 40.480621338000105 ], [ 117.208007813000222, 40.473506927000074 ], [ 117.214202881, 40.464553832000092 ], [ 117.218322754000042, 40.458126068000126 ], [ 117.223060608000196, 40.453521728000169 ], [ 117.226867676000097, 40.445957183000189 ], [ 117.228897094000104, 40.440685273000099 ], [ 117.229743957000096, 40.436107636000145 ], [ 117.229988098000149, 40.431766511000035 ], [ 117.229309081000224, 40.425598144000105 ], [ 117.227142334000064, 40.420356751000156 ], [ 117.224678039000196, 40.414657594000118 ], [ 117.222816467000143, 40.409870147000049 ], [ 117.221572876000209, 40.406219483000143 ], [ 117.220886231, 40.399597168000128 ], [ 117.219314575000112, 40.393436432000044 ], [ 117.217460633000201, 40.389106751000156 ], [ 117.216201782000098, 40.384544373000153 ], [ 117.216735840000183, 40.379283906000182 ], [ 117.216407776000096, 40.376773834000176 ], [ 117.217285155000127, 40.374938965000126 ], [ 117.218765259000179, 40.373329162000061 ], [ 117.222335815000179, 40.37147522000015 ], [ 117.226501465000069, 40.368934631000172 ], [ 117.231559754000159, 40.36639022900016 ], [ 117.235725402000071, 40.363845825000112 ], [ 117.23718261700003, 40.360862733000033 ], [ 117.237731933000077, 40.356975556000179 ], [ 117.237396240000066, 40.354461671000138 ], [ 117.237655640000071, 40.351261138000098 ], [ 117.238510132000215, 40.347599029000037 ], [ 117.241752624000128, 40.343463898000095 ], [ 117.245300293000128, 40.339782715000069 ], [ 117.248542785000154, 40.335876465000183 ], [ 117.252967835000163, 40.330814362000126 ], [ 117.25592803900031, 40.328052521000131 ], [ 117.258567810000159, 40.323692321000124 ], [ 117.262084962000017, 40.318183898000086 ], [ 117.263824463000105, 40.313598633000026 ], [ 117.267341613000212, 40.307861329000161 ], [ 117.272644042000024, 40.301654816000053 ], [ 117.277366638000217, 40.29659271200012 ], [ 117.281784058000085, 40.291076660000044 ], [ 117.287109375000114, 40.28692245600007 ], [ 117.292137145000083, 40.282543182999973 ], [ 117.301063538000108, 40.278823854 ], [ 117.311775208000199, 40.274631500000055 ], [ 117.317733765000185, 40.272758485000054 ], [ 117.320396424000137, 40.270454407000045 ], [ 117.322761535000041, 40.268608093000012 ], [ 117.322441100000219, 40.261974334000115 ], [ 117.324508667000146, 40.259906770000157 ], [ 117.326278687000013, 40.257606507000162 ], [ 117.327751159000059, 40.255538940000065 ], [ 117.329223633000197, 40.253013612000188 ], [ 117.330978393, 40.249114991000113 ], [ 117.332138062000013, 40.24590301600017 ], [ 117.334480287000247, 40.241542817000095 ], [ 117.336837770000216, 40.238327026000036 ], [ 117.340087890000177, 40.234874725000111 ], [ 117.34364318900009, 40.231422425000119 ], [ 117.34691619900002, 40.230033875000174 ], [ 117.350189208000188, 40.229099274000191 ], [ 117.355552674000023, 40.228153229000156 ], [ 117.359733582000104, 40.227443696000137 ], [ 117.363906861000032, 40.226963044000172 ], [ 117.368980408000084, 40.226703644000054 ], [ 117.374656677000189, 40.226673127000083 ], [ 117.379737855000144, 40.226871492000043 ], [ 117.379470825000112, 40.219257355000025 ], [ 117.380615234000174, 40.215820312000176 ], [ 117.381767273000037, 40.212841034 ], [ 117.382896423000034, 40.208717346000071 ], [ 117.38225555300005, 40.205749512000182 ], [ 117.381027221000068, 40.20370101900005 ], [ 117.378013612000018, 40.201671600999987 ], [ 117.3749923700002, 40.199638366000102 ], [ 117.372856140000181, 40.196681976999969 ], [ 117.370727538000097, 40.194187165000187 ], [ 117.369483947000163, 40.190998078000177 ], [ 117.370635986000138, 40.188018799000133 ], [ 117.372985839000307, 40.185028076000037 ], [ 117.376243591000048, 40.183403015000124 ], [ 117.379196167000259, 40.180862426000147 ], [ 117.380363464000084, 40.179256438000152 ], [ 117.381217957000217, 40.17604827800011 ], [ 117.380867005000141, 40.172622680000188 ], [ 117.379348754000034, 40.170806885000104 ], [ 117.373657227000081, 40.170166015 ], [ 117.36710357600009, 40.170902252000133 ], [ 117.358139038000104, 40.170974732000047 ], [ 117.35482788000013, 40.169174195000039 ], [ 117.35060119700006, 40.166007995000086 ], [ 117.347557067000025, 40.161914826000043 ], [ 117.344192505000024, 40.156684876000043 ], [ 117.341117858000075, 40.15031051700015 ], [ 117.337455749000014, 40.144851686000095 ], [ 117.334419251000213, 40.141220093000072 ], [ 117.330505371000186, 40.138965608000149 ], [ 117.32476806700015, 40.134666444000061 ], [ 117.316101073000141, 40.134044647000053 ], [ 117.310722351000095, 40.133628845000089 ], [ 117.305038452000076, 40.132526398000095 ], [ 117.299049377000074, 40.130973816000107 ], [ 117.295440675, 40.128940583000144 ], [ 117.290618897000058, 40.126007080000193 ], [ 117.284027100000117, 40.123996734000116 ], [ 117.281005859000174, 40.121273041000109 ], [ 117.278274536000026, 40.118095397000047 ], [ 117.274330138000096, 40.113094330000081 ], [ 117.271926880000024, 40.11174011200012 ], [ 117.267425537, 40.110172271000181 ], [ 117.263534545000311, 40.109287262 ], [ 117.258453369000222, 40.108634949000134 ], [ 117.252784729000155, 40.108901979000052 ], [ 117.246810914000093, 40.108261109000125 ], [ 117.238449097000057, 40.107631684000182 ], [ 117.231582642000262, 40.107219695000083 ], [ 117.226501465000069, 40.107025146000069 ], [ 117.221405028000163, 40.104774475000113 ], [ 117.215087890000063, 40.101158143000021 ], [ 117.209365844000217, 40.096397400000058 ], [ 117.205749512000011, 40.093677521000131 ], [ 117.200317383000197, 40.088455201000045 ], [ 117.196098327000186, 40.084827423000092 ], [ 117.193984986000032, 40.082782745000031 ], [ 117.182334900000114, 40.08125686600016 ], [ 117.174850464000087, 40.079246522000119 ], [ 117.165573120000204, 40.076332093000076 ], [ 117.159271239000077, 40.073173522000161 ], [ 117.15445709100004, 40.070003509000117 ], [ 117.148460388000217, 40.066841126000043 ], [ 117.143669128000056, 40.065498353000066 ], [ 117.136489869000229, 40.063484193000193 ], [ 117.128135680000014, 40.062618255000132 ], [ 117.120689391000042, 40.063575745000151 ], [ 117.112648010000044, 40.064533235000169 ], [ 117.103096009000069, 40.064132691000054 ], [ 117.092361451000102, 40.064189911000142 ], [ 117.080734254000049, 40.06447982800006 ], [ 117.072982788000104, 40.064064026000153 ], [ 117.063125611000032, 40.062973022000108 ], [ 117.056259155000134, 40.061866760000044 ], [ 117.049964905000024, 40.058929444 ], [ 117.043365478000055, 40.054618835000156 ], [ 117.038253784000062, 40.050075532 ], [ 117.033737182000095, 40.045982361000029 ], [ 117.028335571000071, 40.042354583000076 ], [ 117.02323913500004, 40.038951874000134 ], [ 117.018440247000058, 40.036003113000163 ], [ 117.011253358000204, 40.032608032000155 ], [ 117.004981994000332, 40.031040193000194 ], [ 116.997512817000029, 40.029018403000066 ], [ 116.987976075, 40.029060365000191 ], [ 116.978759766000167, 40.031616212000188 ], [ 116.969841003000056, 40.03485488900003 ], [ 116.964210511000147, 40.038307191000172 ], [ 116.960372924000126, 40.042663575000063 ], [ 116.957855224000014, 40.045978546000129 ], [ 116.955329895000204, 40.045658113000172 ], [ 116.950859070000206, 40.046134948000088 ], [ 116.941925049000019, 40.047313690000124 ], [ 116.930877685000155, 40.045070648000149 ], [ 116.920127868, 40.043514252000193 ], [ 116.912681579000036, 40.043544769000107 ], [ 116.904335023000044, 40.044033052000088 ], [ 116.893600465000077, 40.043617250000182 ], [ 116.886146546000191, 40.043415070000151 ], [ 116.876296997000281, 40.041851044000055 ], [ 116.865257264000206, 40.040290834000075 ], [ 116.856910706, 40.040546418000076 ], [ 116.849464417000036, 40.041942596000183 ], [ 116.842323302000068, 40.043563842000026 ], [ 116.834869385000047, 40.043586731000062 ], [ 116.826805115000184, 40.041557313000169 ], [ 116.818748475, 40.03975296100009 ], [ 116.812171937000016, 40.037258149000081 ], [ 116.80679321200023, 40.034763337000072 ], [ 116.801704406000113, 40.031578063000154 ], [ 116.797821044000216, 40.029987336000033 ], [ 116.791854858000193, 40.029090882000105 ], [ 116.784996033000198, 40.028423310000164 ], [ 116.778137207000213, 40.027984620000097 ], [ 116.777679443000011, 40.027965546000075 ], [ 116.776100159000066, 40.018829346000189 ], [ 116.771987914000078, 40.009784699000136 ], [ 116.768035889000203, 40.00297165000012 ], [ 116.771263122000164, 40.000000000999989 ], [ 116.769783020000091, 39.993442536000032 ], [ 116.766571045000092, 39.985351562000119 ], [ 116.760810852000077, 39.97421646000015 ], [ 116.756103515000063, 39.966316223000092 ], [ 116.75846862800006, 39.959972383000149 ], [ 116.767097472000046, 39.953559875000167 ], [ 116.774513245000207, 39.947349549000194 ], [ 116.776214599000127, 39.935955047000164 ], [ 116.775093079000044, 39.927688600000181 ], [ 116.77737426900012, 39.916534425000179 ], [ 116.778678895000098, 39.9071884170001 ], [ 116.779235841000173, 39.903053283000077 ], [ 116.790214538000214, 39.892066956000122 ], [ 116.798324585000046, 39.888877869000169 ], [ 116.802688598000032, 39.88812637400008 ], [ 116.809906006, 39.886878968000076 ], [ 116.819847107000214, 39.880752563000044 ], [ 116.841964723000046, 39.872665406000124 ], [ 116.870834351000212, 39.852409363000049 ], [ 116.882431029000145, 39.855640411000024 ], [ 116.895271301000093, 39.856567382000094 ], [ 116.907669067000029, 39.854934693000075 ], [ 116.91419220000023, 39.850860595000142 ], [ 116.912361144000101, 39.849487305000025 ], [ 116.916336060000162, 39.846179963000111 ], [ 116.919029236000029, 39.843097686000078 ], [ 116.919464112000014, 39.842597962000127 ], [ 116.920860290000064, 39.837600708000025 ], [ 116.925422669000113, 39.828102111000078 ], [ 116.929016112000227, 39.820415498000102 ], [ 116.931297302000075, 39.815666198000031 ], [ 116.933197021000183, 39.812965394000059 ], [ 116.93299102800006, 39.81067275900017 ], [ 116.93447113000002, 39.806388856000183 ], [ 116.935775756000112, 39.802799225000115 ], [ 116.937103271000069, 39.79822158800016 ], [ 116.942054748000032, 39.792228700000067 ], [ 116.945472718000019, 39.783042907000038 ], [ 116.946586608000189, 39.778457642000035 ], [ 116.946205140000075, 39.77296829200003 ], [ 116.941383362000124, 39.76820754900001 ], [ 116.93396758900019, 39.768730164000033 ], [ 116.928085326000087, 39.771987916000114 ], [ 116.9249115, 39.770317078000062 ], [ 116.922096253000063, 39.768836976000159 ], [ 116.921081543000128, 39.768070220000141 ], [ 116.916992188000108, 39.764991761000033 ], [ 116.911613464000197, 39.762523651000151 ], [ 116.902275086000031, 39.759243012000184 ], [ 116.902069092000033, 39.759170533000145 ], [ 116.901992798000151, 39.759037017000139 ], [ 116.899635315000069, 39.755073549000087 ], [ 116.90399169900013, 39.748859405000189 ], [ 116.906539916000156, 39.741054535000103 ], [ 116.900207520000095, 39.734245300000111 ], [ 116.897644042000024, 39.732955932000152 ], [ 116.894828797000059, 39.731544494000104 ], [ 116.888534545000084, 39.727478028000064 ], [ 116.885475159000293, 39.720870971000068 ], [ 116.886039733000075, 39.718803407000053 ], [ 116.890029908000088, 39.704231262000064 ], [ 116.890815735000047, 39.701374055000031 ], [ 116.894294738000212, 39.696308135000095 ], [ 116.898880005000137, 39.685741425000117 ], [ 116.898986817000036, 39.683925630000033 ], [ 116.899353027000188, 39.67795562800012 ], [ 116.895423888000209, 39.677299499000071 ], [ 116.886276244000101, 39.675777435999976 ], [ 116.878257751000206, 39.674476624000192 ], [ 116.868164063000108, 39.673187257000166 ], [ 116.860710144000222, 39.670501709000177 ], [ 116.847259521000069, 39.662147522000055 ], [ 116.842140198000038, 39.656696319000105 ], [ 116.83641052300004, 39.649421693000079 ], [ 116.832473756000013, 39.643730164000146 ], [ 116.831207276000214, 39.638019561000078 ], [ 116.831733704000044, 39.633213043000069 ], [ 116.831825256000116, 39.628913880000084 ], [ 116.831909179000036, 39.624740601000042 ], [ 116.827995301000101, 39.620197296000072 ], [ 116.823989868000012, 39.61830901999997 ], [ 116.816070557000216, 39.61457061800013 ], [ 116.805091858000083, 39.611595153000053 ], [ 116.799385070000085, 39.610008241000173 ], [ 116.792587279000145, 39.608119965000071 ], [ 116.788383484000065, 39.603576660000158 ], [ 116.784767150000107, 39.599025727000082 ], [ 116.778785705000018, 39.594493867000097 ], [ 116.77021789600019, 39.595932007000101 ], [ 116.763191224000025, 39.602165223000156 ], [ 116.757911682000099, 39.605865479000045 ], [ 116.750579833000074, 39.61118316600016 ], [ 116.744689942000036, 39.613975525000171 ], [ 116.738517761000026, 39.617225647000168 ], [ 116.734725953000293, 39.621601104000035 ], [ 116.726089478000063, 39.618003846000136 ], [ 116.710380554000039, 39.616970062000064 ] ] ] ] } }
]
}
