{
"type": "FeatureCollection",
"name": "chengdu_boundary",
"crs": { "type": "name", "properties": { "name": "urn:ogc:def:crs:OGC:1.3:CRS84" } },
"features": [
{ "type": "Feature", "properties": { "GID_2": "CHN.26.2_1", "GID_0": "CHN", "COUNTRY": "China", "GID_1": "CHN.26_1", "NAME_1": "Sichuan", "NL_NAME_1": "四川", "NAME_2": "Chengdu", "VARNAME_2": "Chéngdū", "NL_NAME_2": "成都市", "TYPE_2": "Dìjíshì", "ENGTYPE_2": "Prefecture City", "CC_2": "NA", "HASC_2": "NA" }, "geometry": { "type": "MultiPolygon", "coordinates": [ [ [ [ 103.468109131000119, 30.13039588900017 ], [ 103.4638519290001, 30.132879257000127 ], [ 103.459602355000072, 30.134670259000188 ], [ 103.453506470000093, 30.135530472000028 ], [ 103.443237304000036, 30.134054184999968 ], [ 103.436683654000092, 30.130775451000147 ], [ 103.434593201000041, 30.128692626000031 ], [ 103.434356690000129, 30.126625062000187 ], [ 103.436233520000144, 30.125038147000055 ], [ 103.439140319000046, 30.124149323000097 ], [ 103.444168090000119, 30.123052597000083 ], [ 103.451576232000036, 30.121290207000129 ], [ 103.455307007000101, 30.11857414200017 ], [ 103.457763672000056, 30.11355209400017 ], [ 103.459938049000129, 30.108066560000111 ], [ 103.461036682000156, 30.104408264000142 ], [ 103.461868286000026, 30.101663590000044 ], [ 103.461112976000095, 30.098903656000118 ], [ 103.456916809000063, 30.096338273000072 ], [ 103.451370240000074, 30.096975327 ], [ 103.445259093000061, 30.100355148000176 ], [ 103.439392091000116, 30.104883193000092 ], [ 103.436439515000075, 30.10806846700001 ], [ 103.432441712000127, 30.111009598000123 ], [ 103.426361085000167, 30.111635209000099 ], [ 103.419761658000084, 30.111574174000111 ], [ 103.412117005000027, 30.110578537000038 ], [ 103.406082153000057, 30.108221054000126 ], [ 103.397651672000165, 30.10653305000011 ], [ 103.393966675, 30.105808259000071 ], [ 103.390296935000151, 30.103933334000089 ], [ 103.386047364000149, 30.105495454000049 ], [ 103.381790162000186, 30.107976913000073 ], [ 103.378852844000107, 30.110927581000169 ], [ 103.375869752000028, 30.116401673000098 ], [ 103.372093200000052, 30.122556686 ], [ 103.368820191000054, 30.130092622000063 ], [ 103.365257264000036, 30.138774871000123 ], [ 103.36280822700013, 30.144941330000108 ], [ 103.360626220000199, 30.149505616000113 ], [ 103.35736083900008, 30.156810761000145 ], [ 103.355430604000162, 30.162527084000146 ], [ 103.355346680000139, 30.168949128000179 ], [ 103.356330871000125, 30.174234390000152 ], [ 103.357322693000128, 30.178831101000071 ], [ 103.360130309000112, 30.18574142500006 ], [ 103.361648560000049, 30.190574646000186 ], [ 103.365242003999981, 30.198411941000188 ], [ 103.367271424000023, 30.204624177000085 ], [ 103.369560241000158, 30.211072922000142 ], [ 103.37001800500019, 30.216581345000179 ], [ 103.369956970000032, 30.220710755000084 ], [ 103.369636535000097, 30.224378585000181 ], [ 103.367736816, 30.228717803000166 ], [ 103.36583709700011, 30.231678009000177 ], [ 103.362632751000035, 30.234628678000149 ], [ 103.357566834000181, 30.237098694000053 ], [ 103.349372863000156, 30.237470626000061 ], [ 103.343276977000073, 30.238779067000053 ], [ 103.336662292000142, 30.239171983000062 ], [ 103.330833434000169, 30.240486145000091 ], [ 103.327117920000035, 30.241365433 ], [ 103.322883606000175, 30.242235184000151 ], [ 103.320487976000038, 30.24267006000008 ], [ 103.317573547000052, 30.243556976000093 ], [ 103.315681457000153, 30.245828628000083 ], [ 103.313262940000129, 30.249015809000127 ], [ 103.311607360000096, 30.253583908000167 ], [ 103.310226441000168, 30.257011414000033 ], [ 103.308082580000132, 30.259511949000114 ], [ 103.304870605000076, 30.262687683000138 ], [ 103.29956817599998, 30.263547898000184 ], [ 103.290817261000086, 30.264831543000071 ], [ 103.282081603999984, 30.265878676999989 ], [ 103.273910522000165, 30.264183045000038 ], [ 103.266822814000136, 30.260433197000111 ], [ 103.259727477000013, 30.257373811000093 ], [ 103.253181458000142, 30.253171922000149 ], [ 103.247673035000048, 30.250356675000035 ], [ 103.242698669000049, 30.24662971500004 ], [ 103.237213134000172, 30.24243927100008 ], [ 103.234367371000133, 30.238279344000034 ], [ 103.231521607000047, 30.234117509000043 ], [ 103.228141784000115, 30.230178834000185 ], [ 103.226348878000067, 30.226259231000142 ], [ 103.22429656900016, 30.222335817000044 ], [ 103.221961975000113, 30.219558717000155 ], [ 103.220680237000067, 30.217018128000177 ], [ 103.218589782000038, 30.215158463000023 ], [ 103.217033386000082, 30.213308333999976 ], [ 103.212547301000029, 30.212564469000029 ], [ 103.210426331000065, 30.213460923000127 ], [ 103.209342956000057, 30.215053558000136 ], [ 103.208503724000082, 30.218255998000075 ], [ 103.210800171000074, 30.223327636000135 ], [ 103.213897704000146, 30.228410721000159 ], [ 103.216186524000136, 30.233940125000117 ], [ 103.216667174000122, 30.236928940000041 ], [ 103.215568543000074, 30.239898682000103 ], [ 103.211593629, 30.241230012000074 ], [ 103.207656860000156, 30.238662719000047 ], [ 103.201896667000085, 30.235382081000012 ], [ 103.197929383000087, 30.235107423000045 ], [ 103.192108153, 30.235727310000073 ], [ 103.186256409000066, 30.237264634000098 ], [ 103.181228638000164, 30.23835182199997 ], [ 103.175926208000021, 30.239208222000173 ], [ 103.17118835500014, 30.237775803000034 ], [ 103.168586731000175, 30.235450744000104 ], [ 103.162322997999979, 30.230789185000162 ], [ 103.157890320000035, 30.226375581000184 ], [ 103.155067445000157, 30.220838546999971 ], [ 103.153282166000167, 30.216688157000135 ], [ 103.151466369000104, 30.213911057000018 ], [ 103.14755249000018, 30.211114883000164 ], [ 103.144157409000059, 30.209009170000115 ], [ 103.139419557000053, 30.207803726000179 ], [ 103.134941102000141, 30.20683288500004 ], [ 103.130172729000037, 30.207231522000086 ], [ 103.126449584000113, 30.208793640000181 ], [ 103.120826721000185, 30.212854385000185 ], [ 103.113632201000144, 30.216894149000154 ], [ 103.109657287000061, 30.217075348000094 ], [ 103.104118347999986, 30.216779709000093 ], [ 103.097793579000097, 30.216241836000052 ], [ 103.094856261000075, 30.217124940000133 ], [ 103.089019775000168, 30.218658447000109 ], [ 103.084503174000076, 30.220893859000114 ], [ 103.07996368300013, 30.223590851000154 ], [ 103.074340820000032, 30.227415085000018 ], [ 103.070312501000046, 30.23126602300016 ], [ 103.068153382, 30.234220506000099 ], [ 103.067291259000172, 30.237880708000091 ], [ 103.065917968000122, 30.241075515000034 ], [ 103.064559936000023, 30.24312210100004 ], [ 103.063430786000026, 30.247465134000151 ], [ 103.062263489000202, 30.254104615000131 ], [ 103.060829162000061, 30.260736466000083 ], [ 103.06018829400017, 30.267381668000098 ], [ 103.0603485110002, 30.273576738000031 ], [ 103.060226441000054, 30.280456543000071 ], [ 103.060401916999979, 30.286193849000085 ], [ 103.060806275000061, 30.293539048000071 ], [ 103.060173036000151, 30.300182342000141 ], [ 103.06059265100015, 30.306608201000074 ], [ 103.063392639000199, 30.313070298000127 ], [ 103.067543029000035, 30.318168640000124 ], [ 103.073532104000037, 30.32374954200003 ], [ 103.081092834000174, 30.331184387000121 ], [ 103.087089539000146, 30.336074829000097 ], [ 103.093353271000069, 30.341430665000019 ], [ 103.099639893000074, 30.345176698000103 ], [ 103.105926515000135, 30.348924636000049 ], [ 103.11168670700016, 30.352895737000097 ], [ 103.115867615000013, 30.356386186000123 ], [ 103.118728637000117, 30.359403610000072 ], [ 103.121322631, 30.363334656000063 ], [ 103.120956421000074, 30.3683795930001 ], [ 103.119338989000198, 30.370880127000078 ], [ 103.115303039000025, 30.375419617000148 ], [ 103.115196229000105, 30.381151199000101 ], [ 103.114830017000145, 30.387571335000189 ], [ 103.115249634000122, 30.394456864000119 ], [ 103.117797851000034, 30.400680542000089 ], [ 103.119293214000038, 30.406890870000041 ], [ 103.119163513000046, 30.414228439000055 ], [ 103.118843078000111, 30.418352127000048 ], [ 103.117393494000055, 30.425676345000113 ], [ 103.117279052000185, 30.432556153000064 ], [ 103.117446900000061, 30.438064576000102 ], [ 103.119728089000034, 30.444742203000089 ], [ 103.123306274000072, 30.452356338000072 ], [ 103.127723694, 30.459062577000111 ], [ 103.131843567000089, 30.466222763000133 ], [ 103.136520386000086, 30.471784591000073 ], [ 103.143592835000049, 30.476915359000031 ], [ 103.146469116999981, 30.479244232999974 ], [ 103.150886536000201, 30.48411369300004 ], [ 103.155082703000176, 30.488063813000167 ], [ 103.159233093000068, 30.493616104000125 ], [ 103.165206910000052, 30.500341416000026 ], [ 103.169647216000101, 30.505208969000023 ], [ 103.173011781000014, 30.510293960000183 ], [ 103.176406859999986, 30.513545990000125 ], [ 103.179260254000042, 30.517480850000084 ], [ 103.182136536000144, 30.520492553000167 ], [ 103.183677673000034, 30.52349472100002 ], [ 103.184669495000037, 30.527633668000135 ], [ 103.186943054000096, 30.535230636000051 ], [ 103.188407897000104, 30.543275833000166 ], [ 103.187812805000078, 30.54808425900012 ], [ 103.186927795000202, 30.553121567000176 ], [ 103.183403015000067, 30.558122633999972 ], [ 103.175376892000031, 30.562618255000075 ], [ 103.168991090000134, 30.563919068000132 ], [ 103.161819459000185, 30.564291001000129 ], [ 103.15625, 30.564226149999968 ], [ 103.151962280000191, 30.567386628000179 ], [ 103.148971557000095, 30.571712493000064 ], [ 103.149131775000058, 30.578590393000184 ], [ 103.150367737000181, 30.584337235000135 ], [ 103.147918700000105, 30.587751390000108 ], [ 103.141288756999984, 30.587669373000153 ], [ 103.134666444000175, 30.586904525000136 ], [ 103.128036499000075, 30.58659362800006 ], [ 103.125923157000159, 30.586797715000159 ], [ 103.124031066000043, 30.588380814000175 ], [ 103.122413635000044, 30.590656281000065 ], [ 103.123153687000183, 30.594333648000088 ], [ 103.124923705000072, 30.598943710000185 ], [ 103.125923157000159, 30.602626802000088 ], [ 103.126678467000147, 30.605386733999978 ], [ 103.124801637000076, 30.606740952000109 ], [ 103.121353150000118, 30.607156754000073 ], [ 103.117889405000142, 30.607572556000036 ], [ 103.112350463000155, 30.605209351000155 ], [ 103.106018067000093, 30.603298188000053 ], [ 103.102317811000148, 30.602106095000067 ], [ 103.098312378000116, 30.60366249100008 ], [ 103.096427917000085, 30.605245590000038 ], [ 103.095306397000172, 30.608442307000132 ], [ 103.095260620000033, 30.611881256000174 ], [ 103.09597778400007, 30.616706849000025 ], [ 103.097229005000088, 30.621309280000105 ], [ 103.099807738000038, 30.62569999800013 ], [ 103.10238647400007, 30.630092621000188 ], [ 103.104408264000199, 30.636535646000141 ], [ 103.106163026000047, 30.642980575000024 ], [ 103.105812072000163, 30.648250580000081 ], [ 103.103538513000103, 30.657167435000019 ], [ 103.103996277000135, 30.66176033 ], [ 103.105262756, 30.665906907000192 ], [ 103.107566834000068, 30.670059204000097 ], [ 103.113319396000122, 30.67609596200009 ], [ 103.117172242000038, 30.68416977000004 ], [ 103.119667054000047, 30.693832398000154 ], [ 103.120391845000086, 30.698656082000127 ], [ 103.120536804000096, 30.705539704000159 ], [ 103.119911193000121, 30.711725234000028 ], [ 103.118278504000102, 30.714227676000121 ], [ 103.115303039000025, 30.717861177000088 ], [ 103.111473083000021, 30.724924087999966 ], [ 103.1065979010001, 30.729909896000038 ], [ 103.102783203000115, 30.735824586000035 ], [ 103.098983765000185, 30.741056443000105 ], [ 103.093063355000027, 30.745111465999969 ], [ 103.087707519000105, 30.747568131000151 ], [ 103.082893371000011, 30.749343872000054 ], [ 103.077819825000176, 30.750886917000116 ], [ 103.071403504000159, 30.753097535000052 ], [ 103.067390442000089, 30.754884719000131 ], [ 103.060150147000115, 30.758691788000078 ], [ 103.056922913000108, 30.761171341000136 ], [ 103.051803589000201, 30.765005111000107 ], [ 103.045326233000139, 30.770656586000086 ], [ 103.04073333700012, 30.775871277000192 ], [ 103.03584289600002, 30.781316758000173 ], [ 103.032592773000147, 30.784715651999988 ], [ 103.029083252000135, 30.78856659000013 ], [ 103.026893616000109, 30.791980743000067 ], [ 103.025001525000164, 30.793333053000083 ], [ 103.022552490000123, 30.796970368000189 ], [ 103.025672912, 30.800907136000149 ], [ 103.030937196000025, 30.803728103000026 ], [ 103.038879395000038, 30.806125640000118 ], [ 103.04737091100003, 30.806921005000106 ], [ 103.05480194200004, 30.80793380700004 ], [ 103.063011169000049, 30.809869766000077 ], [ 103.070953369000108, 30.812265396000043 ], [ 103.077842712, 30.813955307000185 ], [ 103.083671570000035, 30.81471443300012 ], [ 103.089530944000046, 30.814098359000127 ], [ 103.092750550000176, 30.812305450000167 ], [ 103.096496583000089, 30.810287475000109 ], [ 103.100288391000106, 30.806892396000137 ], [ 103.103256225000166, 30.803491592000114 ], [ 103.106491089000144, 30.801237106000087 ], [ 103.108650207000096, 30.799198151000041 ], [ 103.111343384000065, 30.797399521000102 ], [ 103.116386413000157, 30.797229766000157 ], [ 103.121673583000074, 30.800275803000034 ], [ 103.124519348000092, 30.804666519000079 ], [ 103.127662658000133, 30.807916642000123 ], [ 103.131057740000188, 30.811168671000189 ], [ 103.135711670000148, 30.819480896000016 ], [ 103.141220093000186, 30.824363710000114 ], [ 103.146713256000055, 30.830390930000192 ], [ 103.15219879100016, 30.835960388000046 ], [ 103.160072327000194, 30.842708587000175 ], [ 103.165603639000096, 30.846212386000047 ], [ 103.170089722000114, 30.848785401000043 ], [ 103.176986695000096, 30.849784851000152 ], [ 103.183906554000032, 30.849636079000106 ], [ 103.194053650000114, 30.847232819000055 ], [ 103.202331542000081, 30.844804765000049 ], [ 103.209800720000089, 30.843286514000113 ], [ 103.217277527000078, 30.841764450000085 ], [ 103.225540162000129, 30.840486528000042 ], [ 103.234062194000046, 30.839891435000141 ], [ 103.241783140999985, 30.839748383000028 ], [ 103.251350402000128, 30.839853288000086 ], [ 103.261749267000141, 30.838136673000065 ], [ 103.268417359000125, 30.836147309000125 ], [ 103.274307250000163, 30.833461761000137 ], [ 103.280220032000159, 30.82985687200005 ], [ 103.287483215000066, 30.824203492000152 ], [ 103.291801452000072, 30.820121766000113 ], [ 103.29609680100009, 30.816726685000162 ], [ 103.301452637000068, 30.814722061 ], [ 103.304908752000074, 30.814529419000053 ], [ 103.309158326000158, 30.814804077000076 ], [ 103.313926697000113, 30.816001893000021 ], [ 103.317886352000073, 30.81810760400009 ], [ 103.322906495000041, 30.820224763000056 ], [ 103.327903747000164, 30.824409485000047 ], [ 103.330528259000062, 30.82672691300013 ], [ 103.33287811200006, 30.829963685000109 ], [ 103.336807250999982, 30.834133148000035 ], [ 103.341529845000139, 30.839000703000124 ], [ 103.344940185000041, 30.842245102999982 ], [ 103.347831725, 30.844568252000101 ], [ 103.349922181000125, 30.847341537000148 ], [ 103.352813721000075, 30.849666596000077 ], [ 103.357353211000202, 30.853069305000133 ], [ 103.35968017600004, 30.853178025000091 ], [ 103.364967346000185, 30.85598373400012 ], [ 103.371582031000116, 30.858116149000068 ], [ 103.380577087000063, 30.861188888000072 ], [ 103.385353088999977, 30.862842560000104 ], [ 103.390907288999983, 30.864503861000173 ], [ 103.395973206, 30.865243913000086 ], [ 103.402839661000201, 30.868291856000155 ], [ 103.407608032000098, 30.869945525999981 ], [ 103.4150238040001, 30.873001099000135 ], [ 103.420036316000107, 30.875114441 ], [ 103.425331117000042, 30.87768936100008 ], [ 103.429298400000107, 30.879335403000027 ], [ 103.432212829000093, 30.880968095000128 ], [ 103.434577943000022, 30.882366180000076 ], [ 103.437492372000065, 30.883771896000042 ], [ 103.440666198000088, 30.885179520000122 ], [ 103.440193176000037, 30.882392884000126 ], [ 103.441787719999979, 30.880559921000099 ], [ 103.443122863000042, 30.877811432000158 ], [ 103.444717408000088, 30.875518799000076 ], [ 103.446853638000107, 30.874145508000026 ], [ 103.449783325000112, 30.873001099000135 ], [ 103.453498840000179, 30.871627807000039 ], [ 103.458023071000127, 30.870485306000091 ], [ 103.463607788000104, 30.868883133000111 ], [ 103.466537475000109, 30.867965698000148 ], [ 103.472923278999986, 30.865905762000068 ], [ 103.484367371000076, 30.864074708000089 ], [ 103.487030028000049, 30.861555100000146 ], [ 103.491546630000187, 30.857660293000038 ], [ 103.495277405000024, 30.854679108000028 ], [ 103.502990722999982, 30.851242067000101 ], [ 103.512832642000149, 30.847120286000063 ], [ 103.526657105000083, 30.842535019000024 ], [ 103.531463623000036, 30.84001350300008 ], [ 103.535179138999979, 30.837034226000071 ], [ 103.539703369000051, 30.834512710000126 ], [ 103.543159486000093, 30.829471589000036 ], [ 103.547683715000062, 30.826719285000024 ], [ 103.555122376000156, 30.826715470000181 ], [ 103.562568665000128, 30.824190139000052 ], [ 103.567619324000134, 30.823961258 ], [ 103.572143553999979, 30.821208954000042 ], [ 103.573738099000025, 30.819601059000149 ], [ 103.576133728000116, 30.816623687000174 ], [ 103.579322815000069, 30.812496186000146 ], [ 103.583831787000122, 30.807680130000108 ], [ 103.587821961000031, 30.805845262000162 ], [ 103.592613221000192, 30.801948547000052 ], [ 103.594993592000037, 30.797590255000046 ], [ 103.59578704900008, 30.793693543000074 ], [ 103.596313477000081, 30.791170120000061 ], [ 103.597908021000023, 30.786357879000093 ], [ 103.598701476000087, 30.781772614000033 ], [ 103.599761963000162, 30.776729583000133 ], [ 103.600288390000117, 30.773977279000121 ], [ 103.601623535000158, 30.771455765000042 ], [ 103.603477477000069, 30.769851685 ], [ 103.606399537000073, 30.768930435000186 ], [ 103.609321594, 30.768014907000122 ], [ 103.612243653000121, 30.76801109400003 ], [ 103.616500855000083, 30.769838333000166 ], [ 103.621551514000089, 30.769836426999973 ], [ 103.625526428, 30.770063400000026 ], [ 103.629257203000066, 30.771665573000178 ], [ 103.635108947000163, 30.77303505000009 ], [ 103.639099121000072, 30.77349090600012 ], [ 103.644416808000187, 30.774400711000169 ], [ 103.648941040000068, 30.775774003000095 ], [ 103.655052184000112, 30.775537492000183 ], [ 103.662231445000032, 30.775987625000027 ], [ 103.667549132000147, 30.776441573999989 ], [ 103.672866821000184, 30.77712249800004 ], [ 103.679237365000063, 30.776885987000128 ], [ 103.682426452000072, 30.776651382000125 ], [ 103.687217711000073, 30.773437501000046 ], [ 103.692787170000031, 30.76769828700003 ], [ 103.697029114000202, 30.763111115000072 ], [ 103.701812745000154, 30.759666443000185 ], [ 103.707382201000144, 30.754383088000111 ], [ 103.712158203000115, 30.751630784000099 ], [ 103.718803406000063, 30.74841117800014 ], [ 103.72331237800006, 30.747484207000127 ], [ 103.722259521000126, 30.752990723000096 ], [ 103.720153809000124, 30.759866715000044 ], [ 103.716453551000029, 30.76881027200011 ], [ 103.713272095000036, 30.77546691900011 ], [ 103.710899353, 30.783262254000192 ], [ 103.708778381000059, 30.789451599000074 ], [ 103.706672668000181, 30.79610443100006 ], [ 103.705352783000137, 30.801147462000131 ], [ 103.704826353999977, 30.806646347000083 ], [ 103.703506470000036, 30.811693191000074 ], [ 103.70139312800012, 30.816736222000145 ], [ 103.698753357000101, 30.822242738000114 ], [ 103.695297242000095, 30.827289582000049 ], [ 103.692649841000161, 30.833026886000141 ], [ 103.691329956000061, 30.83921432600016 ], [ 103.69107818700013, 30.845861435000074 ], [ 103.690551758000197, 30.849758147999978 ], [ 103.690559388000111, 30.853885650999985 ], [ 103.690032958000074, 30.858009339000148 ], [ 103.690040588000159, 30.86144828800019 ], [ 103.690322877000142, 30.864658356000064 ], [ 103.691658019000158, 30.871759416000145 ], [ 103.6929931640002, 30.875885009000172 ], [ 103.694061279000039, 30.877944946000184 ], [ 103.694862367000042, 30.880008697000164 ], [ 103.696998597000061, 30.881837845000121 ], [ 103.701263427000129, 30.88228988700007 ], [ 103.703910828000062, 30.879993439000145 ], [ 103.706039428000167, 30.878387451000094 ], [ 103.707366943000125, 30.876552582999977 ], [ 103.710281372000168, 30.872650147000058 ], [ 103.712409974000025, 30.870126724000045 ], [ 103.715072632000101, 30.86806106500012 ], [ 103.716392518000077, 30.866453172000035 ], [ 103.718780518000131, 30.865533829000128 ], [ 103.721710205000136, 30.866676330000018 ], [ 103.725982665000117, 30.869880677000026 ], [ 103.728912353000055, 30.873540879000188 ], [ 103.731582642000092, 30.87628936800013 ], [ 103.735313415000178, 30.878572465000161 ], [ 103.740913392000152, 30.880853654000134 ], [ 103.745162964000201, 30.881992340000068 ], [ 103.747833252000191, 30.883363724000162 ], [ 103.752090454000154, 30.884733201000074 ], [ 103.75662231400014, 30.887477875000172 ], [ 103.758758546000138, 30.889762879000045 ], [ 103.76064300500019, 30.893657684000118 ], [ 103.761177062000058, 30.89800834600004 ], [ 103.76199340800008, 30.903049469000166 ], [ 103.762001038000051, 30.908092498000087 ], [ 103.761749268000131, 30.914510727000049 ], [ 103.762573242000144, 30.920007706000035 ], [ 103.764976502000195, 30.92550659200009 ], [ 103.764717103000123, 30.931007385000044 ], [ 103.764732361000142, 30.93467521700012 ], [ 103.764480592000041, 30.940404892000174 ], [ 103.763687134000065, 30.944074632000081 ], [ 103.762626647, 30.946825028000092 ], [ 103.762107848000142, 30.948888780000118 ], [ 103.763710023000101, 30.951637269000059 ], [ 103.765579223000032, 30.953924179000126 ], [ 103.767448426000101, 30.955526351000174 ], [ 103.770378113000106, 30.955518723000068 ], [ 103.774909973000092, 30.955280304000155 ], [ 103.777580261000026, 30.957796097000028 ], [ 103.778923034000059, 30.962377549 ], [ 103.779739378999977, 30.967649459000143 ], [ 103.778678894000109, 30.970630646000131 ], [ 103.777076722000061, 30.973155975000111 ], [ 103.775756835000152, 30.975221634000036 ], [ 103.773101806000113, 30.977516174000186 ], [ 103.771247864000202, 30.979810714000109 ], [ 103.768859864000149, 30.983024597000053 ], [ 103.766197205000196, 30.987384796000129 ], [ 103.763023376000035, 30.990140915000154 ], [ 103.760360718000186, 30.993125915000064 ], [ 103.757438659000115, 30.997028350999983 ], [ 103.755317687000115, 31.000467300000082 ], [ 103.753723145000151, 31.004367829000103 ], [ 103.751602172999981, 31.007808686000146 ], [ 103.750022889000093, 31.012853622000137 ], [ 103.747627259000069, 31.015607834000093 ], [ 103.746566772, 31.019962311000086 ], [ 103.744453431000011, 31.022491456000182 ], [ 103.743652343000178, 31.026615142000139 ], [ 103.742340087000173, 31.032577514000138 ], [ 103.741012571999988, 31.037391662000061 ], [ 103.739692688000048, 31.041519166000114 ], [ 103.738372803000175, 31.046104431000174 ], [ 103.736778259000062, 31.049316406000116 ], [ 103.734657287000061, 31.052299501000107 ], [ 103.730667115000131, 31.057577133000166 ], [ 103.726936340000066, 31.05987358100009 ], [ 103.721878053000182, 31.062862396000185 ], [ 103.718147278000117, 31.064472199000079 ], [ 103.716560364000088, 31.067224503000091 ], [ 103.716560364000088, 31.069057466000118 ], [ 103.717903137000064, 31.071117402000027 ], [ 103.72083282400007, 31.072488783999972 ], [ 103.724571229000048, 31.073629380000057 ], [ 103.728569031000063, 31.074079514000175 ], [ 103.733901977000073, 31.074302674000137 ], [ 103.738700866000045, 31.074295044000053 ], [ 103.747772216000101, 31.073591233000172 ], [ 103.753372191000096, 31.074956895000184 ], [ 103.759239196000124, 31.076091766000047 ], [ 103.763511659000073, 31.077001571000096 ], [ 103.769111634000012, 31.078365327000142 ], [ 103.77258300900013, 31.08065032899998 ], [ 103.77632141100014, 31.082017898000117 ], [ 103.776329040000178, 31.083852769000146 ], [ 103.771003722999978, 31.085464477000073 ], [ 103.766197205000196, 31.088224412000102 ], [ 103.761413573000198, 31.091440200000079 ], [ 103.759277343000178, 31.093053818000158 ], [ 103.756362914000192, 31.097410202 ], [ 103.753440857000101, 31.102914810000186 ], [ 103.750793458000146, 31.10681533800016 ], [ 103.747871399000019, 31.114156724000054 ], [ 103.745483399000193, 31.118743897000115 ], [ 103.742553712000131, 31.123561860000052 ], [ 103.740173340000183, 31.130670548000069 ], [ 103.739379883000197, 31.133878708000111 ], [ 103.738586426000154, 31.137315750000084 ], [ 103.737792969000168, 31.141214370000057 ], [ 103.738342285000101, 31.14763069300011 ], [ 103.741828918000067, 31.153581619000079 ], [ 103.741043091000108, 31.155876159000059 ], [ 103.740242004000038, 31.15931511000008 ], [ 103.735977173000038, 31.163448334000122 ], [ 103.731452942000033, 31.16757965 ], [ 103.72664642400008, 31.170566560000054 ], [ 103.719726562000062, 31.173324585000103 ], [ 103.716003418000184, 31.176540375000059 ], [ 103.711196900000061, 31.179067611000107 ], [ 103.707199097000114, 31.182283402000166 ], [ 103.703201293000063, 31.186185837000039 ], [ 103.699996948000091, 31.188022613000101 ], [ 103.697326660000101, 31.191232681000145 ], [ 103.694396973000096, 31.193758012000103 ], [ 103.691207886000086, 31.196969987000045 ], [ 103.686950684000124, 31.202934265000067 ], [ 103.685623169000166, 31.206371308000143 ], [ 103.683219909000059, 31.210271836000118 ], [ 103.682968140000128, 31.215082169000084 ], [ 103.681907655000032, 31.218982696000182 ], [ 103.682182313, 31.223335266000049 ], [ 103.681648255000084, 31.226543426000092 ], [ 103.683532716000116, 31.232042313000079 ], [ 103.68540954600013, 31.236623763000068 ], [ 103.688629150000111, 31.243265152000049 ], [ 103.690773009999987, 31.246700288000056 ], [ 103.692382813000052, 31.24853134100016 ], [ 103.696121216000051, 31.251274109000065 ], [ 103.699073792000092, 31.254936219 ], [ 103.702278137000064, 31.25768470800017 ], [ 103.705223083000021, 31.261804581000035 ], [ 103.706832884999983, 31.265468597000165 ], [ 103.70977783100011, 31.269359589000032 ], [ 103.711662292000199, 31.273710251000125 ], [ 103.714073182000163, 31.27897834800018 ], [ 103.715957641000045, 31.283559800000035 ], [ 103.716499328, 31.286996841000075 ], [ 103.717041016000053, 31.290199281000014 ], [ 103.716781616000105, 31.293411254000148 ], [ 103.716262817000086, 31.299140930000078 ], [ 103.715469360000043, 31.304182054000137 ], [ 103.710952759000179, 31.315643311000144 ], [ 103.707481383000186, 31.320922851000148 ], [ 103.705886841000051, 31.324361802 ], [ 103.701622009000175, 31.330785751000121 ], [ 103.699226378999981, 31.334909439000114 ], [ 103.695762634, 31.339956283000049 ], [ 103.693359374000124, 31.344314575000055 ], [ 103.69069671699998, 31.349359513000024 ], [ 103.689628602000198, 31.351421357000106 ], [ 103.68884277300009, 31.353942871000186 ], [ 103.687232972, 31.356924058000061 ], [ 103.683502197000166, 31.361053466000101 ], [ 103.680816650999986, 31.363119126000129 ], [ 103.678962707000096, 31.364725113000077 ], [ 103.675277709, 31.367404939000096 ], [ 103.676841735000096, 31.371315002000074 ], [ 103.679458618000183, 31.376150130999974 ], [ 103.685279846000071, 31.381925584000101 ], [ 103.687919617000091, 31.385385514 ], [ 103.691619872999979, 31.389541625999982 ], [ 103.697982788000047, 31.394636155000114 ], [ 103.704368592000151, 31.398353577000023 ], [ 103.715026855000133, 31.401416778000055 ], [ 103.723037720000093, 31.403081893000092 ], [ 103.729988097999978, 31.403593064000177 ], [ 103.735580445000039, 31.406156539999984 ], [ 103.737960816000111, 31.408695221000187 ], [ 103.740333558000145, 31.412382126000125 ], [ 103.741378784000119, 31.414911270000175 ], [ 103.744293213000105, 31.418369294000115 ], [ 103.748001099000135, 31.421377183 ], [ 103.752258301000097, 31.42393303 ], [ 103.757858276000093, 31.426036834000172 ], [ 103.763992309, 31.427459718000136 ], [ 103.769073487000185, 31.428869247000137 ], [ 103.77359771700003, 31.430276870000171 ], [ 103.778396606000172, 31.432146073000183 ], [ 103.781860351000148, 31.434003830000165 ], [ 103.786376953000115, 31.436557769 ], [ 103.78930664000012, 31.438642502000107 ], [ 103.79142761200012, 31.440721512000152 ], [ 103.792480469000111, 31.442792892000114 ], [ 103.793533326000102, 31.444862366000109 ], [ 103.798362732000157, 31.443979264000063 ], [ 103.802108765000071, 31.44308853299998 ], [ 103.806953430000078, 31.440828324000108 ], [ 103.811256409, 31.436733245000141 ], [ 103.814247131000059, 31.431709290000015 ], [ 103.81752777000014, 31.425313950000032 ], [ 103.825042725000117, 31.422840119000114 ], [ 103.832267761000196, 31.42220306400003 ], [ 103.839759827000137, 31.422483445000069 ], [ 103.849372864000145, 31.423923492000142 ], [ 103.858192443000064, 31.425584793000155 ], [ 103.86432647800018, 31.426311494000174 ], [ 103.872901917000149, 31.426368714000091 ], [ 103.882537841000044, 31.425739288000102 ], [ 103.889503480000201, 31.424184799000159 ], [ 103.892738342000143, 31.421222688000114 ], [ 103.895210265000117, 31.413671494000084 ], [ 103.898216248000097, 31.405666352000139 ], [ 103.902313233000029, 31.397209168000074 ], [ 103.905853271000012, 31.389207840000097 ], [ 103.909927367000137, 31.38097953800019 ], [ 103.914512635000108, 31.37733840900006 ], [ 103.915626527000086, 31.370235444000059 ], [ 103.916221619000112, 31.36359214800018 ], [ 103.915733337, 31.358085632000041 ], [ 103.914703369000051, 31.353267669000104 ], [ 103.91127777100013, 31.347286224000186 ], [ 103.907051087000184, 31.341527939000059 ], [ 103.90228271400008, 31.336683274000052 ], [ 103.898567200000173, 31.331846238000026 ], [ 103.894866944000057, 31.327463150000142 ], [ 103.891433716000051, 31.322858811000117 ], [ 103.889602662000073, 31.318721772000174 ], [ 103.888832091000154, 31.315046310000184 ], [ 103.889411926000093, 31.309549333 ], [ 103.892120361000082, 31.305208207000192 ], [ 103.895103455000196, 31.299951553000142 ], [ 103.897018432000095, 31.294921875000171 ], [ 103.905647277000014, 31.284658432000128 ], [ 103.909431457000153, 31.280555724000124 ], [ 103.91348266600005, 31.275308608000159 ], [ 103.918869019000113, 31.269609451000122 ], [ 103.922912598000096, 31.265274048000151 ], [ 103.925079345000086, 31.261621475000027 ], [ 103.927803040000072, 31.256134033000023 ], [ 103.928627014000085, 31.250867843000037 ], [ 103.928413391000049, 31.245134354000186 ], [ 103.927932739000084, 31.239397048000114 ], [ 103.930107118000137, 31.234369278000145 ], [ 103.931732179000051, 31.230937959000187 ], [ 103.936317444000053, 31.22569465600003 ], [ 103.943038941000111, 31.219541550000031 ], [ 103.948432922000109, 31.213382721000187 ], [ 103.955406188000154, 31.20860862800015 ], [ 103.9615631100001, 31.20612335200002 ], [ 103.967987060000155, 31.204555513000059 ], [ 103.973052978000055, 31.205270767000115 ], [ 103.982711793000135, 31.198907853000151 ], [ 103.987548827000126, 31.194576263000044 ], [ 103.992660522000051, 31.189329147000024 ], [ 103.998840331000054, 31.183862686000111 ], [ 104.001792907000095, 31.181585312000152 ], [ 104.006362916000114, 31.176794052000162 ], [ 104.008522035000169, 31.173599242000137 ], [ 104.008567810000102, 31.167406082000014 ], [ 104.008346557000039, 31.160757065000098 ], [ 104.008926391000045, 31.153652192000152 ], [ 104.009506226000155, 31.148151397000049 ], [ 104.010887146000186, 31.141967773000147 ], [ 104.012542725000117, 31.135328294000146 ], [ 104.015518188000044, 31.128465652000045 ], [ 104.016899110000054, 31.121595383000113 ], [ 104.019882202000133, 31.115188597999975 ], [ 104.022323609000068, 31.110616684000092 ], [ 104.02475738600009, 31.10466766400009 ], [ 104.02934265100015, 31.098272325000039 ], [ 104.033912659000066, 31.093023301000017 ], [ 104.040878296000074, 31.087554933000035 ], [ 104.045440675, 31.082765579000068 ], [ 104.052947999000139, 31.076612473000068 ], [ 104.058837890000177, 31.072744369000077 ], [ 104.066070557000046, 31.068195343000127 ], [ 104.073303223000039, 31.06318664600019 ], [ 104.078933717000155, 31.057710647000192 ], [ 104.083770751000145, 31.052003862000049 ], [ 104.088859557000035, 31.047212600000137 ], [ 104.092880250000064, 31.04356193600006 ], [ 104.098243714000091, 31.039918900000089 ], [ 104.102241516000106, 31.038562775000059 ], [ 104.108123780000085, 31.035150527000155 ], [ 104.11052703900009, 31.033786773000088 ], [ 104.112419128000056, 31.031042100000093 ], [ 104.117233276000093, 31.027166368000053 ], [ 104.121261597000114, 31.022140503000173 ], [ 104.126350403000117, 31.018493652000132 ], [ 104.133583070000043, 31.013711930000113 ], [ 104.14106750600007, 31.008012773000075 ], [ 104.146957397000051, 31.002309798999988 ], [ 104.151252746000068, 30.997739792000175 ], [ 104.155822755000088, 30.991796493000038 ], [ 104.160362243000179, 30.987689973000045 ], [ 104.162521361000131, 30.98311233600009 ], [ 104.163093568000136, 30.977840424000192 ], [ 104.163917542000092, 30.972112656000036 ], [ 104.16262817400019, 30.964769364000119 ], [ 104.161323547000165, 30.959030152000082 ], [ 104.158691407000163, 30.954660416000024 ], [ 104.15605163500004, 30.94983482400005 ], [ 104.15421295200008, 30.945699693000165 ], [ 104.151847839000197, 30.940185547000056 ], [ 104.148681640000177, 30.93604278600003 ], [ 104.145523072000117, 30.930526734000182 ], [ 104.142616271000065, 30.926155090000123 ], [ 104.140777587000116, 30.922252655000079 ], [ 104.139472961000195, 30.918575287000124 ], [ 104.136840820000089, 30.913059236000151 ], [ 104.143226624000192, 30.911943436000172 ], [ 104.150680541000099, 30.912202836000176 ], [ 104.158943176000093, 30.912469864000059 ], [ 104.165321350000056, 30.912038802999973 ], [ 104.17225647000015, 30.909776687000033 ], [ 104.179992675000108, 30.905683518000046 ], [ 104.183723450000173, 30.905237197000133 ], [ 104.187461852000013, 30.903417587000035 ], [ 104.194641114000035, 30.904821395000056 ], [ 104.203941345000089, 30.906234741000105 ], [ 104.218582153, 30.905834198000093 ], [ 104.22736358700007, 30.906557084000042 ], [ 104.237213134000115, 30.906822204000093 ], [ 104.245460510000044, 30.905935287000034 ], [ 104.25398254400011, 30.905279159000088 ], [ 104.263572694000118, 30.904396058000088 ], [ 104.275817870000026, 30.902833939000061 ], [ 104.282997131000116, 30.90239715600012 ], [ 104.28939056400003, 30.902193069000191 ], [ 104.300300597999978, 30.902229309000177 ], [ 104.309089661000087, 30.901798248000091 ], [ 104.316009521000069, 30.901359558000024 ], [ 104.327186585000106, 30.901395797000134 ], [ 104.331977844000164, 30.901180267000029 ], [ 104.336769104000098, 30.900508881000064 ], [ 104.342346192000036, 30.900522231000139 ], [ 104.347396851000042, 30.902143479000131 ], [ 104.350860596000018, 30.903759003000062 ], [ 104.35458374100017, 30.906524658000023 ], [ 104.355621337000059, 30.911109925000062 ], [ 104.357727050999983, 30.917539596000097 ], [ 104.356910705000132, 30.92166328400009 ], [ 104.357147216000101, 30.927625656000089 ], [ 104.3590087890002, 30.931070328000033 ], [ 104.362716675, 30.934520722000059 ], [ 104.366706849000138, 30.936363221000192 ], [ 104.374427796000077, 30.937074661000054 ], [ 104.381881713000155, 30.93686676100009 ], [ 104.389343262000182, 30.93711471600011 ], [ 104.397048951000102, 30.93828010500016 ], [ 104.405036925000047, 30.93921852200009 ], [ 104.411689759000012, 30.939922332000037 ], [ 104.418083191, 30.940166474000193 ], [ 104.42899322500017, 30.93950271500006 ], [ 104.43618011500007, 30.938602448000097 ], [ 104.443901061000133, 30.940225602000112 ], [ 104.451881408000077, 30.942993164000086 ], [ 104.458793639000078, 30.945072174000188 ], [ 104.465713501000096, 30.945087432000037 ], [ 104.473442078000176, 30.943725586000141 ], [ 104.479843140000128, 30.942819596000163 ], [ 104.48676300000011, 30.941688538000164 ], [ 104.491020202000129, 30.940090180000084 ], [ 104.495552064000094, 30.939636231000065 ], [ 104.501953124000011, 30.93712806700006 ], [ 104.505676269000162, 30.935300828000095 ], [ 104.511543274000189, 30.931411744 ], [ 104.518463135000161, 30.928670883000166 ], [ 104.522743226000159, 30.924779893000107 ], [ 104.526206971000136, 30.918136597000057 ], [ 104.526222229000155, 30.912403108000035 ], [ 104.523841857000036, 30.905290604000072 ], [ 104.522789001000149, 30.899099350000085 ], [ 104.523857116000102, 30.895889282000041 ], [ 104.525993348000156, 30.893600464000031 ], [ 104.53053283600002, 30.889478684000039 ], [ 104.536918640000124, 30.886278152999978 ], [ 104.543571472000053, 30.882848740000043 ], [ 104.551300049000133, 30.878501892000088 ], [ 104.557952881000119, 30.874612809000098 ], [ 104.564346313000101, 30.869804382000041 ], [ 104.568878173000087, 30.86614227299998 ], [ 104.574203492000095, 30.863168716000075 ], [ 104.583793639000135, 30.859279633000085 ], [ 104.592300415000011, 30.856306077000056 ], [ 104.601081849000082, 30.856088639 ], [ 104.608802796000077, 30.854719162000151 ], [ 104.61518097000004, 30.853120805000117 ], [ 104.622360229000094, 30.851060868000161 ], [ 104.631408691000047, 30.84808921900003 ], [ 104.643646241000056, 30.843051911000146 ], [ 104.652160645000038, 30.839616775000138 ], [ 104.658813477000194, 30.837329865000072 ], [ 104.668388366000102, 30.83412170500003 ], [ 104.676101685000106, 30.829309464000062 ], [ 104.685676576, 30.823810577000074 ], [ 104.688873291000107, 30.822435379000183 ], [ 104.692596435000155, 30.820144654000046 ], [ 104.698707581000065, 30.81601715100004 ], [ 104.70056915300006, 30.813495636000084 ], [ 104.702957153000114, 30.807992935000129 ], [ 104.70429992600009, 30.802032471000075 ], [ 104.705093383000133, 30.794233323000128 ], [ 104.706428528, 30.789646148000088 ], [ 104.706703186000198, 30.786436080000044 ], [ 104.707229613000152, 30.783227920000172 ], [ 104.708290100000056, 30.781391144000111 ], [ 104.710418700000105, 30.780015947000095 ], [ 104.714668274000189, 30.779329300000029 ], [ 104.721580506000123, 30.777496339000152 ], [ 104.726097107000157, 30.775661468000123 ], [ 104.72955322200005, 30.772222519000081 ], [ 104.732482909000055, 30.769239427000173 ], [ 104.735656738000046, 30.765115738000134 ], [ 104.738319397000168, 30.760068894000142 ], [ 104.740447997000047, 30.754564286000175 ], [ 104.743370057000106, 30.749059676000172 ], [ 104.747093201000098, 30.743095399000083 ], [ 104.750267030000089, 30.738508224000043 ], [ 104.754516602000137, 30.73484039300007 ], [ 104.759040833000142, 30.73025322 ], [ 104.76196289100011, 30.728645325000116 ], [ 104.767272949000187, 30.726352692000034 ], [ 104.772323608000193, 30.725891113000159 ], [ 104.777900695000085, 30.724971772 ], [ 104.783477784000127, 30.724512101000073 ], [ 104.787986755000077, 30.722675325000182 ], [ 104.790382385000044, 30.71992492600009 ], [ 104.78958129900019, 30.715108873000133 ], [ 104.78958129900019, 30.709604263000131 ], [ 104.790367126000092, 30.703180314000178 ], [ 104.791687011000135, 30.697906494000108 ], [ 104.793281555000078, 30.692630767000082 ], [ 104.796203613000102, 30.68804168700018 ], [ 104.800193787000012, 30.684829712000067 ], [ 104.806823730000133, 30.679323196000098 ], [ 104.810798644000045, 30.675651551000158 ], [ 104.813179016, 30.670606613000189 ], [ 104.814506530000074, 30.667852401 ], [ 104.81503296000011, 30.663265228000171 ], [ 104.814498902000139, 30.657760620000033 ], [ 104.815551757000151, 30.650423049000153 ], [ 104.817672729000094, 30.645376205 ], [ 104.820587158000137, 30.641475677000017 ], [ 104.824569702000133, 30.638490677000163 ], [ 104.829612733000033, 30.637571335000132 ], [ 104.834922790000178, 30.637107850000064 ], [ 104.838363648000154, 30.635269166000171 ], [ 104.839950562000183, 30.631368636000161 ], [ 104.840209962000131, 30.627012252000156 ], [ 104.838623048000102, 30.622655868000152 ], [ 104.834098816000051, 30.61784362800006 ], [ 104.830642701000158, 30.613716126000099 ], [ 104.825332642000035, 30.609594346000165 ], [ 104.820556641000167, 30.60661697400019 ], [ 104.816841125000053, 30.602947235000045 ], [ 104.814178467000033, 30.599052428999983 ], [ 104.814697266000053, 30.59515380900018 ], [ 104.817359924000073, 30.591024398000059 ], [ 104.820007325, 30.58872795100018 ], [ 104.824249267000141, 30.587577819000046 ], [ 104.831413270000041, 30.589866639000093 ], [ 104.835128784000176, 30.591236115000072 ], [ 104.843086242000084, 30.59375572100015 ], [ 104.846809387, 30.594211578000113 ], [ 104.849456788000111, 30.594209672000147 ], [ 104.852653503000056, 30.594207765000078 ], [ 104.855560304000107, 30.593515396999976 ], [ 104.857147216000158, 30.59030342200009 ], [ 104.857940673000144, 30.584571838000102 ], [ 104.860580444, 30.57837677100008 ], [ 104.86374664300007, 30.571950911999977 ], [ 104.868263244000104, 30.566213608000112 ], [ 104.872230530000081, 30.563226701000133 ], [ 104.877273559000173, 30.560926437999967 ], [ 104.880966187000183, 30.558399200000167 ], [ 104.887336731000062, 30.556327819999979 ], [ 104.889976502000081, 30.554031372000054 ], [ 104.89103698700012, 30.551967621000074 ], [ 104.891830444000163, 30.547380448000069 ], [ 104.891021728000055, 30.541416169000172 ], [ 104.889686585000163, 30.534997940000153 ], [ 104.887832641000045, 30.528347016000168 ], [ 104.885429383000144, 30.523534776000076 ], [ 104.880912782000109, 30.516431808000164 ], [ 104.877990722999982, 30.514598847000116 ], [ 104.875343323000152, 30.512538910000103 ], [ 104.871620179000104, 30.510477066000078 ], [ 104.867652893000127, 30.510711670000092 ], [ 104.861816407000049, 30.50865364100008 ], [ 104.854652404000149, 30.507513047000032 ], [ 104.84776306100008, 30.507978439000169 ], [ 104.842727660000094, 30.508899690000078 ], [ 104.837692261000086, 30.509822846000077 ], [ 104.829483032000041, 30.509597778000114 ], [ 104.822319031000177, 30.510980607000079 ], [ 104.815963746000193, 30.510524751000162 ], [ 104.81065368700007, 30.510068894000028 ], [ 104.804817199000126, 30.507091523000156 ], [ 104.799263001000099, 30.505256654000107 ], [ 104.794219970000199, 30.503198623000117 ], [ 104.78679656900016, 30.500677109000037 ], [ 104.779373169000053, 30.498842239000055 ], [ 104.774597168000014, 30.495405198000185 ], [ 104.766906737000113, 30.495639801000152 ], [ 104.762413024000182, 30.496326446000182 ], [ 104.75895691, 30.498163224000109 ], [ 104.754722596000136, 30.499538421000125 ], [ 104.751808167000149, 30.502521516000115 ], [ 104.749427796000077, 30.504816056000095 ], [ 104.745712281000067, 30.507564545000037 ], [ 104.740417481, 30.510320664000062 ], [ 104.735908506999976, 30.512386323000044 ], [ 104.733253480000144, 30.514909744000192 ], [ 104.731933593000065, 30.520410537000146 ], [ 104.729019164000078, 30.527521133000107 ], [ 104.725036620000083, 30.533712388000026 ], [ 104.721603394000056, 30.539218903000062 ], [ 104.719207764000089, 30.542198181000174 ], [ 104.712837219000107, 30.543804168000122 ], [ 104.699836732000108, 30.550453187000187 ], [ 104.693206786000076, 30.552745819000165 ], [ 104.687637330000086, 30.556409836000057 ], [ 104.685516358000086, 30.558933259000185 ], [ 104.68208313000008, 30.562368393000042 ], [ 104.681022645000155, 30.566270828000029 ], [ 104.68208313000008, 30.569940568000106 ], [ 104.684722901000043, 30.576133728000059 ], [ 104.687370300000168, 30.582555771000045 ], [ 104.691879272000051, 30.588520051000046 ], [ 104.695327758000076, 30.593336106000152 ], [ 104.698776245000033, 30.596778870000094 ], [ 104.698776245000033, 30.599531174000106 ], [ 104.698509217000151, 30.602510452000047 ], [ 104.694526673000155, 30.605720520000091 ], [ 104.689483642000084, 30.605718612000089 ], [ 104.682586671000081, 30.606405259000155 ], [ 104.674888610000039, 30.607318879000104 ], [ 104.667991637000057, 30.608463288000166 ], [ 104.660026551000044, 30.608228684000153 ], [ 104.653396606000115, 30.60776710500005 ], [ 104.644653321000078, 30.607990266000115 ], [ 104.639602662000073, 30.610050202000025 ], [ 104.632698058000074, 30.613943100000085 ], [ 104.627662660000169, 30.617151260000128 ], [ 104.623138428000118, 30.621046067000066 ], [ 104.619682311000076, 30.62585830800009 ], [ 104.612518310000155, 30.626998901000036 ], [ 104.605087280000134, 30.626535415000035 ], [ 104.596588134000172, 30.628362655000046 ], [ 104.590751648000037, 30.630878448000146 ], [ 104.585700989000031, 30.635229112000047 ], [ 104.580917359000011, 30.640497209000102 ], [ 104.577728272000058, 30.643245698000044 ], [ 104.574539185000049, 30.644161225 ], [ 104.571090699000194, 30.644844055000192 ], [ 104.566047668000067, 30.642314912000131 ], [ 104.561538696000071, 30.639329910000072 ], [ 104.555709838000041, 30.635650635000161 ], [ 104.55066680900012, 30.634267807000185 ], [ 104.545623780000085, 30.633802415000048 ], [ 104.538719177000132, 30.636085509999987 ], [ 104.532348633000083, 30.636535646000141 ], [ 104.527046203000111, 30.635837556000126 ], [ 104.522270203000176, 30.633537293000131 ], [ 104.521476746000189, 30.631242753000151 ], [ 104.520690917000081, 30.628261566000162 ], [ 104.518310548000045, 30.623439790000134 ], [ 104.516456604000098, 30.619310379000183 ], [ 104.514617920000035, 30.61517715500014 ], [ 104.511711121000133, 30.609209060000069 ], [ 104.509063720000199, 30.606914520000089 ], [ 104.501640320000092, 30.603918075000081 ], [ 104.496070861000135, 30.601844788000051 ], [ 104.488662719000047, 30.598390579000124 ], [ 104.480697631, 30.597457887000076 ], [ 104.469558716000051, 30.593996048000065 ], [ 104.461601258000144, 30.593063354000151 ], [ 104.454177856000172, 30.5925903320001 ], [ 104.446746827000027, 30.592113494000102 ], [ 104.439323425000111, 30.591180801000121 ], [ 104.43428039600019, 30.592548370000031 ], [ 104.429237366, 30.594598771000108 ], [ 104.425506592000033, 30.596193313000072 ], [ 104.42019653300008, 30.597328186000084 ], [ 104.41702270400009, 30.59869957 ], [ 104.414100647, 30.59937858700016 ], [ 104.410636902000022, 30.600746154000092 ], [ 104.40614318900009, 30.600048066000056 ], [ 104.403762818000075, 30.597751618000132 ], [ 104.401382446000127, 30.594533920000174 ], [ 104.400329590000013, 30.590400696000131 ], [ 104.400093079000101, 30.583749772000147 ], [ 104.401168824000194, 30.578937532000054 ], [ 104.402511597, 30.572517396000137 ], [ 104.403587342000094, 30.567016601000034 ], [ 104.404937743, 30.560827256000152 ], [ 104.406013489000202, 30.556240081000112 ], [ 104.407882691000168, 30.55188941900019 ], [ 104.41001892100013, 30.548685074 ], [ 104.412940978000051, 30.544565201000125 ], [ 104.414016724000078, 30.537916184000039 ], [ 104.41510772700002, 30.531496049000054 ], [ 104.414047242000152, 30.528053285000112 ], [ 104.411422729000151, 30.522544862000075 ], [ 104.407463074000134, 30.518634796000185 ], [ 104.402442931, 30.51426506100006 ], [ 104.398483276000036, 30.510124207000104 ], [ 104.395309449000081, 30.505990981000025 ], [ 104.389221192000036, 30.50391006600006 ], [ 104.383659363000163, 30.501373292000153 ], [ 104.378112793000071, 30.497919083000056 ], [ 104.375213622999979, 30.494010925 ], [ 104.370452880000187, 30.491247178000037 ], [ 104.366737366000052, 30.490318299000023 ], [ 104.362770080000075, 30.488931657000023 ], [ 104.360656738000046, 30.486862182000152 ], [ 104.356422425000062, 30.484554291000052 ], [ 104.352188111000032, 30.483852386000137 ], [ 104.345558166000046, 30.484064101000172 ], [ 104.340522767000095, 30.486114502000078 ], [ 104.338119506999988, 30.490234375000171 ], [ 104.334381104000045, 30.496187209000141 ], [ 104.331443787000126, 30.502141953000091 ], [ 104.328773499000135, 30.507408142000145 ], [ 104.326103211000202, 30.513364792000061 ], [ 104.323692321000181, 30.517713548000188 ], [ 104.321037292000142, 30.519769669000027 ], [ 104.318382262000057, 30.519302368000183 ], [ 104.314949036000201, 30.517456056000185 ], [ 104.314689637000129, 30.515621185000157 ], [ 104.315498352000191, 30.513328552000075 ], [ 104.315773010000157, 30.510808945000065 ], [ 104.317909240000176, 30.505769731000044 ], [ 104.31791687000009, 30.503477096000154 ], [ 104.318199158000141, 30.500034332000041 ], [ 104.31741332900009, 30.498199463 ], [ 104.313713073000145, 30.496810913000047 ], [ 104.310791016000053, 30.497489930000029 ], [ 104.305763246000083, 30.497245789000146 ], [ 104.304710389000093, 30.494260789000066 ], [ 104.305259705000083, 30.488529205000134 ], [ 104.306602478000059, 30.484403610000129 ], [ 104.306083679000039, 30.48256874100008 ], [ 104.305038452000133, 30.479583741 ], [ 104.301063538000051, 30.47957038800007 ], [ 104.295753479000098, 30.481157303000032 ], [ 104.294410706000122, 30.485279082999966 ], [ 104.2941207880001, 30.491014482000139 ], [ 104.292510987000014, 30.495826722000061 ], [ 104.290901184000177, 30.499259948000088 ], [ 104.289833069000167, 30.502466201000061 ], [ 104.287178040000128, 30.502229690000149 ], [ 104.283218384000065, 30.499691011000152 ], [ 104.278991699000187, 30.495780945000092 ], [ 104.272399902000018, 30.488649369000143 ], [ 104.26818084700011, 30.483583451000186 ], [ 104.264770507000037, 30.476921082000047 ], [ 104.262939454000104, 30.47118187000018 ], [ 104.26030731100002, 30.467731476000154 ], [ 104.259521484000118, 30.465208053000026 ], [ 104.259277343000065, 30.462223053000116 ], [ 104.258758546000024, 30.459012985000072 ], [ 104.256408691000047, 30.452581406000036 ], [ 104.253013611000142, 30.444082260000073 ], [ 104.250106811000137, 30.438341141000137 ], [ 104.247756958000139, 30.433055878000118 ], [ 104.244338990000131, 30.427537918000041 ], [ 104.240646362000177, 30.422937394000087 ], [ 104.237243652000188, 30.417190552000136 ], [ 104.234092712000063, 30.412593842000092 ], [ 104.228553773000158, 30.407068253000034 ], [ 104.224082946000124, 30.401317596000069 ], [ 104.220413209000185, 30.393503190000047 ], [ 104.218841553000175, 30.389827728000057 ], [ 104.217033386000026, 30.38339805600009 ], [ 104.21492767400008, 30.379034042000171 ], [ 104.212051392000149, 30.372140884000032 ], [ 104.210220336000134, 30.367317200000059 ], [ 104.20549011200012, 30.361106872000107 ], [ 104.202606202000027, 30.35558891300019 ], [ 104.198928832000092, 30.350528716000099 ], [ 104.193672181000068, 30.343854904000182 ], [ 104.190246583000146, 30.339712142000053 ], [ 104.190002441, 30.33719062900002 ], [ 104.189216614000088, 30.335351945000127 ], [ 104.183692933000202, 30.330053329000123 ], [ 104.179496764000021, 30.323614120000173 ], [ 104.174530029000039, 30.31304168700018 ], [ 104.170883178, 30.302703858000029 ], [ 104.166969299000073, 30.293285369000159 ], [ 104.162483215000179, 30.291429520000122 ], [ 104.159606934000124, 30.284996033000141 ], [ 104.156723022000108, 30.281541824000044 ], [ 104.154907227000024, 30.274654388000044 ], [ 104.15151214500014, 30.267297746000111 ], [ 104.147590637000064, 30.260171890000095 ], [ 104.14312744200015, 30.254417420000038 ], [ 104.139976502000195, 30.248899459000086 ], [ 104.135269164000078, 30.242225646000065 ], [ 104.13159942700014, 30.237163544000055 ], [ 104.126609803000122, 30.2314071670001 ], [ 104.121078492000152, 30.228168488000108 ], [ 104.116333007000151, 30.227226258000144 ], [ 104.112632751000035, 30.225606918000096 ], [ 104.105506897000055, 30.223968506000062 ], [ 104.102333068000064, 30.225559235000162 ], [ 104.096763610000039, 30.228742600000032 ], [ 104.092498780000142, 30.233768463000104 ], [ 104.09060668900014, 30.239492416000019 ], [ 104.090843200000108, 30.244308471000181 ], [ 104.08895873900002, 30.248889924000082 ], [ 104.08814239600008, 30.25347137600005 ], [ 104.084709167000142, 30.252079010000159 ], [ 104.079673767000088, 30.254121781000151 ], [ 104.072792054000104, 30.255689622000091 ], [ 104.067756653000117, 30.256582261000176 ], [ 104.062728882000044, 30.258390426000119 ], [ 104.059272766000049, 30.261356355000089 ], [ 104.054222106000168, 30.265228272000115 ], [ 104.048652648000143, 30.268182755000055 ], [ 104.044128418000071, 30.271600723000063 ], [ 104.041198731000065, 30.274337769000056 ], [ 104.037757875000125, 30.275007248000122 ], [ 104.032203674000186, 30.274976731000152 ], [ 104.022163391000163, 30.273775102000116 ], [ 104.015808106, 30.274429321000127 ], [ 104.008392334000177, 30.275995254000122 ], [ 104.000473023000154, 30.275491715000101 ], [ 103.995162964000144, 30.278444290999971 ], [ 103.9911799690002, 30.27956994800013 ], [ 103.990701528000159, 30.279911036000101 ], [ 103.988006368000072, 30.281832048000069 ], [ 103.987991, 30.281843 ], [ 103.987977669000088, 30.281849961000034 ], [ 103.985171531999981, 30.283314924000024 ], [ 103.983207703000119, 30.284339905000024 ], [ 103.979476928999986, 30.28799057100008 ], [ 103.974952697000106, 30.291633606000175 ], [ 103.971908065000093, 30.295243239000115 ], [ 103.971790989, 30.295382042000142 ], [ 103.971488952000129, 30.295740129000023 ], [ 103.968269348000035, 30.301916123000126 ], [ 103.964790343000061, 30.30671119800013 ], [ 103.962112427000136, 30.311054229000035 ], [ 103.961084537000033, 30.313760899000158 ], [ 103.96071095100001, 30.314744637000047 ], [ 103.959678651000047, 30.317462922000175 ], [ 103.957669573000089, 30.319866639000168 ], [ 103.957112221000159, 30.320533469999987 ], [ 103.957008361000078, 30.320657731000097 ], [ 103.9548797610002, 30.322250366000162 ], [ 103.952232360000096, 30.32246208100014 ], [ 103.946662903000117, 30.324953080000114 ], [ 103.942947387, 30.326307296000095 ], [ 103.941292910000186, 30.327810829000043 ], [ 103.940238854000199, 30.328768719999971 ], [ 103.938682557000106, 30.330183030000114 ], [ 103.934677124000075, 30.334516526000016 ], [ 103.932241776000183, 30.337557245000028 ], [ 103.932014066000193, 30.337841559000083 ], [ 103.930656433000195, 30.339536666000072 ], [ 103.928253174000019, 30.343650819000061 ], [ 103.92805017500001, 30.343911273000117 ], [ 103.926972632000115, 30.345293799000103 ], [ 103.926116943000125, 30.346391678000089 ], [ 103.923980713000105, 30.348442078000119 ], [ 103.923044819000154, 30.349242706000098 ], [ 103.921933329000183, 30.350193551000132 ], [ 103.9210510260001, 30.350948334000179 ], [ 103.920283909000148, 30.351748325000187 ], [ 103.920196582000074, 30.35183939500007 ], [ 103.918647766000049, 30.353454591000116 ], [ 103.916309136000166, 30.354062530000078 ], [ 103.915880347000098, 30.354173996000043 ], [ 103.915199000000143, 30.354351000000122 ], [ 103.913113577000161, 30.349744166000164 ], [ 103.911896766000098, 30.346312254000111 ], [ 103.911567689000151, 30.345384598000066 ], [ 103.910018921000074, 30.340784072000076 ], [ 103.904747009000175, 30.337543488 ], [ 103.90273368600009, 30.337044203000175 ], [ 103.901526, 30.336745 ], [ 103.9000020000002, 30.336367001000099 ], [ 103.899979997000059, 30.33636278 ], [ 103.897077000000138, 30.335806000000161 ], [ 103.896565929000019, 30.335707869000089 ], [ 103.896301269000162, 30.335657120000064 ], [ 103.89506850600003, 30.335586079000166 ], [ 103.89180000000016, 30.335398001000044 ], [ 103.8881, 30.335373001000107 ], [ 103.884377001000132, 30.336493000000132 ], [ 103.882518517, 30.337399236000181 ], [ 103.88065508800014, 30.338310696000065 ], [ 103.876751462000072, 30.34207219100017 ], [ 103.876403950999986, 30.342407087000026 ], [ 103.873711, 30.347208000000137 ], [ 103.872867426000028, 30.34799883 ], [ 103.87104743499998, 30.349705029000063 ], [ 103.871037772000193, 30.349713463000057 ], [ 103.86880835300019, 30.351177425 ], [ 103.867577001000086, 30.351986001000114 ], [ 103.865537596000195, 30.353567408000174 ], [ 103.864646335000089, 30.354258100000095 ], [ 103.863033756000164, 30.354500401000166 ], [ 103.861732, 30.354696000000104 ], [ 103.856712, 30.353519 ], [ 103.851173, 30.351875000000121 ], [ 103.845879, 30.35161 ], [ 103.842438000000129, 30.351587 ], [ 103.836067000000185, 30.353149 ], [ 103.831532000000152, 30.352975000000185 ], [ 103.828934000000118, 30.352875 ], [ 103.826412000000175, 30.353168000000153 ], [ 103.823408800000038, 30.353516727000112 ], [ 103.823372000000177, 30.353521 ], [ 103.816222362000133, 30.353931057000125 ], [ 103.813044, 30.354215 ], [ 103.811446166, 30.354356856000095 ], [ 103.809088, 30.353950000000168 ], [ 103.805901, 30.353399 ], [ 103.803387210000039, 30.353265511000131 ], [ 103.800873001000127, 30.35313200100012 ], [ 103.796912999000199, 30.353107 ], [ 103.792290784000102, 30.351735190000056 ], [ 103.792152, 30.351694 ], [ 103.790700040000161, 30.351053852000177 ], [ 103.787404973000093, 30.349600629000122 ], [ 103.786286000000132, 30.348844000000156 ], [ 103.782944, 30.346582000000183 ], [ 103.780821592999985, 30.343964878000179 ], [ 103.780326999000124, 30.343354999000098 ], [ 103.779853755000033, 30.342306386000132 ], [ 103.779289000000119, 30.341055000000154 ], [ 103.777992, 30.338293001000125 ], [ 103.776946999000074, 30.336220000000139 ], [ 103.774596999000096, 30.332993000000101 ], [ 103.773881669000104, 30.331933337000066 ], [ 103.773040771000126, 30.330688477000137 ], [ 103.771476745000029, 30.327465058000143 ], [ 103.770565665000163, 30.325569965000113 ], [ 103.770172537000121, 30.324752238000031 ], [ 103.769927979000158, 30.324243545000115 ], [ 103.766783008000118, 30.321072420000178 ], [ 103.766615755000032, 30.32090377600008 ], [ 103.766258240000184, 30.320543289 ], [ 103.761924470999986, 30.319440475000079 ], [ 103.760897123000063, 30.319179044 ], [ 103.760711670000092, 30.319131852000055 ], [ 103.754096985, 30.319768905000103 ], [ 103.747222900000111, 30.319259644000113 ], [ 103.739837647000058, 30.316909791000114 ], [ 103.739805700000147, 30.316893428000128 ], [ 103.739531885000133, 30.316753180000035 ], [ 103.734832762999986, 30.314346313000101 ], [ 103.727462769000056, 30.310850144000142 ], [ 103.725368576000051, 30.310089933000029 ], [ 103.724712328000123, 30.309851709000043 ], [ 103.721656800000062, 30.308742523000092 ], [ 103.719429251000065, 30.307810570000186 ], [ 103.71719400000012, 30.306875001000094 ], [ 103.711646980000182, 30.3049961050001 ], [ 103.708229066000172, 30.302904130000115 ], [ 103.702697754000098, 30.300800324000136 ], [ 103.697448731000179, 30.29708671700007 ], [ 103.69508361700008, 30.295003892000125 ], [ 103.691932685000154, 30.29337494300006 ], [ 103.68692799900009, 30.291270999000062 ], [ 103.685101834000079, 30.289873428000192 ], [ 103.68299102800006, 30.288257598000087 ], [ 103.679580792000138, 30.28547677 ], [ 103.676453, 30.282012999000017 ], [ 103.676017345000105, 30.281400493000149 ], [ 103.67514038000013, 30.280166627000028 ], [ 103.673416440000096, 30.277568077000126 ], [ 103.672538758000144, 30.27624511800019 ], [ 103.670909544000153, 30.274623337000037 ], [ 103.6704482990001, 30.274164246000169 ], [ 103.667831420000198, 30.271162032000063 ], [ 103.666557313000055, 30.266105653000125 ], [ 103.665550137000196, 30.262197326000148 ], [ 103.663726806000057, 30.258972168000128 ], [ 103.662429810000049, 30.257127762000096 ], [ 103.660453797000059, 30.251337051000121 ], [ 103.65646362300015, 30.24675750800003 ], [ 103.653617859, 30.240770340999973 ], [ 103.650779724000131, 30.233865737000144 ], [ 103.649261475000174, 30.227659226000071 ], [ 103.649063111000089, 30.221693039000172 ], [ 103.649383546000081, 30.21665001000008 ], [ 103.64972686700014, 30.208854675000168 ], [ 103.649513244000161, 30.205183030000057 ], [ 103.649276733000193, 30.201740264000136 ], [ 103.648513795000156, 30.198982240000191 ], [ 103.6448593140002, 30.195510865000131 ], [ 103.638526916999979, 30.194084168000131 ], [ 103.629257203000066, 30.195381164000139 ], [ 103.619453431000125, 30.198740006000037 ], [ 103.61070251600006, 30.201417924000111 ], [ 103.60141754100016, 30.204551696000067 ], [ 103.593208313000048, 30.205852509000124 ], [ 103.586593628000116, 30.206487655999979 ], [ 103.580528259000175, 30.20551681600017 ], [ 103.57341766400009, 30.203620910000154 ], [ 103.563163758000087, 30.198942185000192 ], [ 103.556640625000057, 30.191770554000186 ], [ 103.550109863999978, 30.185750962000043 ], [ 103.548278808000191, 30.183898926000097 ], [ 103.546463013000164, 30.18112754800012 ], [ 103.542297363000102, 30.175817490000043 ], [ 103.538406373000043, 30.170045854000136 ], [ 103.53188324000007, 30.163106919000086 ], [ 103.525321960000042, 30.159374237000122 ], [ 103.520080567000036, 30.156345367000142 ], [ 103.515907288000164, 30.151950836000083 ], [ 103.509613036000189, 30.148448944000052 ], [ 103.503562928000179, 30.146787644000085 ], [ 103.49964141900017, 30.142854690000092 ], [ 103.496520995000083, 30.138692855000102 ], [ 103.495246888000111, 30.135471344000109 ], [ 103.494232178000175, 30.132020950000083 ], [ 103.492408753, 30.129940032000036 ], [ 103.4908599850001, 30.126941682000108 ], [ 103.483489990000066, 30.125268936000055 ], [ 103.47741699300019, 30.125211716000138 ], [ 103.473709106000115, 30.126091004000045 ], [ 103.468109131000119, 30.13039588900017 ] ] ] ] } }
]
}
