{
"type": "FeatureCollection",
"name": "shenyang_boundary",
"crs": { "type": "name", "properties": { "name": "urn:ogc:def:crs:OGC:1.3:CRS84" } },
"features": [
{ "type": "Feature", "properties": { "GID_2": "CHN.18.12_1", "GID_0": "CHN", "COUNTRY": "China", "GID_1": "CHN.18_1", "NAME_1": "Liaoning", "NL_NAME_1": "遼寧|辽宁", "NAME_2": "Shenyang", "VARNAME_2": "Shěnyáng", "NL_NAME_2": "沈阳市", "TYPE_2": "Dìjíshì", "ENGTYPE_2": "Prefecture City", "CC_2": "NA", "HASC_2": "NA" }, "geometry": { "type": "MultiPolygon", "coordinates": [ [ [ [ 123.71957397500023, 41.511730194000108 ], [ 123.716178894000109, 41.511157990000186 ], [ 123.702980042000263, 41.510231019000173 ], [ 123.698509216000048, 41.512218475000111 ], [ 123.69123840300017, 41.518432618000077 ], [ 123.685287476000099, 41.521160125999984 ], [ 123.679878235000047, 41.522720337000067 ], [ 123.671333312000115, 41.522716522000167 ], [ 123.662849427000083, 41.525966644000164 ], [ 123.653633118000243, 41.526554109000188 ], [ 123.647949219000111, 41.526050568000187 ], [ 123.64265441800012, 41.523967743000071 ], [ 123.637023927000087, 41.521858216000055 ], [ 123.628890991000048, 41.518688203000181 ], [ 123.619781494000108, 41.514629365000076 ], [ 123.608757020000098, 41.509735108000086 ], [ 123.596664428000054, 41.500934601000154 ], [ 123.591552734000061, 41.497200013000054 ], [ 123.583061218000012, 41.493118287000186 ], [ 123.578659057000209, 41.490970612000183 ], [ 123.577651977000187, 41.489395143000138 ], [ 123.566635131000112, 41.489067078000062 ], [ 123.555381774000011, 41.484844206999981 ], [ 123.548805238000341, 41.482074737000175 ], [ 123.540756226000099, 41.480270385000097 ], [ 123.535881042000028, 41.480430603000059 ], [ 123.529830932000209, 41.481544495000037 ], [ 123.520629883000083, 41.486202241000115 ], [ 123.514442443000121, 41.484798432000048 ], [ 123.509376525000221, 41.481746674000135 ], [ 123.504127502000074, 41.480770111000083 ], [ 123.498977661000026, 41.48162460400016 ], [ 123.492858886000022, 41.481361389000142 ], [ 123.480316161000019, 41.475791931000117 ], [ 123.474517822000166, 41.470470429000159 ], [ 123.469375611000032, 41.46604537900015 ], [ 123.465499877000184, 41.462268829000152 ], [ 123.462242127000081, 41.458698272 ], [ 123.45666503800021, 41.457267762000129 ], [ 123.451148987000124, 41.456985474000078 ], [ 123.444267272000047, 41.45949935900012 ], [ 123.437171937000016, 41.463626863000059 ], [ 123.426017762000015, 41.466270447000113 ], [ 123.423309327000197, 41.46704864600008 ], [ 123.416099549000023, 41.469108582 ], [ 123.408348084000181, 41.472564697000053 ], [ 123.405654908000088, 41.479076387000077 ], [ 123.401016235000043, 41.483581543000184 ], [ 123.395401002000085, 41.486972809000065 ], [ 123.384620667000036, 41.491279601000087 ], [ 123.376029969000342, 41.493160249000084 ], [ 123.37001037500022, 41.504859925000176 ], [ 123.36174011200012, 41.500541688000055 ], [ 123.351974487, 41.500576019000107 ], [ 123.351715088000333, 41.506755829000042 ], [ 123.338600158000077, 41.509094238000159 ], [ 123.330963135000047, 41.507976531000111 ], [ 123.326950072000159, 41.50066375800003 ], [ 123.31598663300008, 41.504821778000121 ], [ 123.307746887000121, 41.511646271000188 ], [ 123.304992676000211, 41.517517090000183 ], [ 123.300338745000204, 41.519966125000053 ], [ 123.294006348000039, 41.521537781000063 ], [ 123.286376953000172, 41.521770477000132 ], [ 123.279647828000179, 41.521743774000129 ], [ 123.27301788300008, 41.523548126000037 ], [ 123.267967223000142, 41.526226044000111 ], [ 123.26329040600001, 41.530269623000095 ], [ 123.25739288300008, 41.534347534000119 ], [ 123.251350402000071, 41.535675049000076 ], [ 123.246749879000049, 41.535354614000084 ], [ 123.240097045000084, 41.536701202000131 ], [ 123.23319244400011, 41.53919982900004 ], [ 123.227928162000126, 41.543720246000021 ], [ 123.219383239000194, 41.549713134000115 ], [ 123.216194152000185, 41.553020477000132 ], [ 123.212951660000158, 41.555408479000164 ], [ 123.208763122000164, 41.55714035 ], [ 123.202667236000025, 41.557548524000026 ], [ 123.196807861000138, 41.556575776000045 ], [ 123.188102723000156, 41.553848268000138 ], [ 123.184692383000083, 41.553028107000046 ], [ 123.172492982000108, 41.547878266000168 ], [ 123.161384583000199, 41.545909881000114 ], [ 123.151741027000071, 41.54274749800004 ], [ 123.140235900000107, 41.538948060000052 ], [ 123.135368347000167, 41.539550781000116 ], [ 123.132087708000086, 41.541023255000084 ], [ 123.128578186000141, 41.544109344000105 ], [ 123.121902466000051, 41.551181793000012 ], [ 123.112274170000092, 41.560180665000132 ], [ 123.105720520000204, 41.569549561000144 ], [ 123.104988098000149, 41.573242187000119 ], [ 123.105216979000147, 41.577594758000089 ], [ 123.109092713000223, 41.58161544900014 ], [ 123.113883973000156, 41.585609436000141 ], [ 123.117691039000192, 41.588253020000025 ], [ 123.119987489000096, 41.591167449000181 ], [ 123.121421814000087, 41.595260621000079 ], [ 123.120727539000086, 41.599639894000177 ], [ 123.119270325000116, 41.601058960000159 ], [ 123.116233826000325, 41.601604461000079 ], [ 123.110710144000222, 41.601306915000123 ], [ 123.105094909000172, 41.599170684000057 ], [ 123.09900665300006, 41.60002136200012 ], [ 123.09286499000018, 41.588256836000141 ], [ 123.077133178000054, 41.581863403000057 ], [ 123.079841613000099, 41.570446016000119 ], [ 123.075111389000199, 41.56373977700008 ], [ 123.075675965000187, 41.552753449000022 ], [ 123.069038391000049, 41.549228669000058 ], [ 123.058761597000057, 41.545192719999989 ], [ 123.047828675000233, 41.542755128000124 ], [ 123.041191101000095, 41.539455414000145 ], [ 123.036415100000227, 41.535037994000049 ], [ 123.028808594000225, 41.521419526000159 ], [ 123.022872926000105, 41.514465333000032 ], [ 123.01787567100007, 41.506607057000167 ], [ 123.015007019000222, 41.499237061000031 ], [ 123.008354188000339, 41.496852875000116 ], [ 123.001205445000096, 41.502250672000059 ], [ 122.992851257000098, 41.507171631000176 ], [ 122.985939025000107, 41.502948761000141 ], [ 122.967033387000129, 41.502677918000018 ], [ 122.953300476000095, 41.491027832000157 ], [ 122.948020936000262, 41.482704162000118 ], [ 122.944168090000176, 41.47829437300004 ], [ 122.936019898000268, 41.474971772000174 ], [ 122.928535462000241, 41.469593048000149 ], [ 122.924446106000119, 41.462429047000057 ], [ 122.91705322200005, 41.453842164000037 ], [ 122.909278870000207, 41.447772980000025 ], [ 122.900993347000053, 41.43848800700016 ], [ 122.897918701000208, 41.427673340000183 ], [ 122.895553589000087, 41.426174163000042 ], [ 122.891624451000212, 41.423686981000117 ], [ 122.883201598000255, 41.419666290000066 ], [ 122.875099181000223, 41.414958955000088 ], [ 122.871253968000246, 41.410778046000075 ], [ 122.862098694000224, 41.411327362000065 ], [ 122.857078552000303, 41.416744232999974 ], [ 122.844161987, 41.410133361000135 ], [ 122.84264373800022, 41.398654938000107 ], [ 122.843498230000023, 41.389503479000098 ], [ 122.841598511000143, 41.381000519000168 ], [ 122.837135315000182, 41.377033233000191 ], [ 122.835502625000117, 41.369907379000153 ], [ 122.820632934000173, 41.368072510000161 ], [ 122.812797547000173, 41.365200043000073 ], [ 122.79814148000014, 41.367031097000051 ], [ 122.784927368000126, 41.360633849000067 ], [ 122.776725769000336, 41.359817506000127 ], [ 122.771972656000116, 41.355846405000079 ], [ 122.761161805000256, 41.361396790000072 ], [ 122.748306275000118, 41.353168487000062 ], [ 122.73729705900007, 41.344284058000085 ], [ 122.742294311000023, 41.340015411000138 ], [ 122.742790221000064, 41.333148956000173 ], [ 122.744796753000173, 41.32676696700014 ], [ 122.737556458000199, 41.324588775000052 ], [ 122.733779907000098, 41.318340302000195 ], [ 122.723701477000191, 41.319774627000129 ], [ 122.714637757000219, 41.317794799000126 ], [ 122.718597412, 41.306861877000017 ], [ 122.71021270700021, 41.302371979000156 ], [ 122.703620911000144, 41.299053193000191 ], [ 122.696701049000126, 41.296417237000014 ], [ 122.697174071000177, 41.290699005000135 ], [ 122.700103761000037, 41.284107208000137 ], [ 122.695854187, 41.27349472100002 ], [ 122.689926147000165, 41.26812744200015 ], [ 122.684341430000018, 41.261844635000159 ], [ 122.678405762000011, 41.256935120000094 ], [ 122.666870116000041, 41.246429443000125 ], [ 122.662330628000291, 41.235355376000143 ], [ 122.663093567000146, 41.219791412000063 ], [ 122.660835266000049, 41.214023589000078 ], [ 122.654273986000021, 41.210018159000128 ], [ 122.645309448000035, 41.205280304000041 ], [ 122.64117431700015, 41.211395264000089 ], [ 122.632255554000039, 41.205055237000181 ], [ 122.627265930000021, 41.199470520000034 ], [ 122.621963502000085, 41.194110871000021 ], [ 122.609825133000186, 41.193897248000042 ], [ 122.607131957000092, 41.19427108800005 ], [ 122.606857299000126, 41.21324157700019 ], [ 122.604965210000159, 41.218563079000148 ], [ 122.60247039800015, 41.224128723000035 ], [ 122.598236085000167, 41.231571199000143 ], [ 122.596046447000163, 41.237129212000184 ], [ 122.594055176000325, 41.240158081000061 ], [ 122.591140747000168, 41.243209839000144 ], [ 122.584236144000101, 41.245216371000083 ], [ 122.573486328000058, 41.242725372000109 ], [ 122.554924011000139, 41.242256165000128 ], [ 122.548706054000149, 41.246074676000148 ], [ 122.547256469000217, 41.247714996000127 ], [ 122.547683716000165, 41.250686645000087 ], [ 122.548995972000171, 41.252944946000184 ], [ 122.552467346000185, 41.255844116000048 ], [ 122.558105469000111, 41.259609223000098 ], [ 122.564483643000017, 41.266563416000054 ], [ 122.566802979000158, 41.270862580000141 ], [ 122.568161011000029, 41.274272920000044 ], [ 122.571372986000142, 41.278091431000064 ], [ 122.577964783000084, 41.282749177000142 ], [ 122.585525512000117, 41.28875732400013 ], [ 122.59584045500003, 41.295154571000182 ], [ 122.601150512000117, 41.298240663000115 ], [ 122.606460571000071, 41.301319122000166 ], [ 122.608436585000049, 41.304710389000036 ], [ 122.608917236000252, 41.308826447000058 ], [ 122.609054565000179, 41.312034607000101 ], [ 122.614639281000223, 41.314418793000186 ], [ 122.620704650000107, 41.31381225500013 ], [ 122.626480103000063, 41.313671113000169 ], [ 122.62906646700003, 41.317047119000051 ], [ 122.629791259000172, 41.319782257000043 ], [ 122.633270264000089, 41.322677613000167 ], [ 122.637092591000282, 41.326480866000168 ], [ 122.641075135000165, 41.339359285000171 ], [ 122.643341064000083, 41.341751099000192 ], [ 122.651855468000122, 41.345649719 ], [ 122.650634765000063, 41.351829529000099 ], [ 122.644531250000341, 41.357776643000136 ], [ 122.636314392000145, 41.358913421000182 ], [ 122.633567811000148, 41.36371994100017 ], [ 122.639945984000065, 41.368762970000091 ], [ 122.648162842000261, 41.376556398000105 ], [ 122.655456544000117, 41.385719300000062 ], [ 122.656364441000051, 41.39510727000004 ], [ 122.649353028000178, 41.393959046000077 ], [ 122.638999940000076, 41.391658783000082 ], [ 122.631370545000095, 41.400577546000022 ], [ 122.633483887000125, 41.414546968000025 ], [ 122.63773345900006, 41.424396515000069 ], [ 122.630096435000155, 41.431716920000099 ], [ 122.620628357000101, 41.442008972000053 ], [ 122.628234863000102, 41.450714112000014 ], [ 122.625480652000078, 41.459869384000115 ], [ 122.623931884000058, 41.47177505500008 ], [ 122.626342774000022, 41.486660004000044 ], [ 122.626022339000087, 41.498336792000032 ], [ 122.624481202000197, 41.506801606000181 ], [ 122.62997436500018, 41.505893708000031 ], [ 122.627517700000226, 41.515510559000177 ], [ 122.622619630000145, 41.521911621000072 ], [ 122.613456726000322, 41.513999938000154 ], [ 122.60329437200005, 41.509887696000078 ], [ 122.594070435000049, 41.512619019000056 ], [ 122.593879701000105, 41.515144349000082 ], [ 122.593551636000029, 41.521575928000118 ], [ 122.593841552000072, 41.52822113000019 ], [ 122.590057374000139, 41.532440185000098 ], [ 122.577873231000012, 41.533191680000186 ], [ 122.567390442000146, 41.538032532000159 ], [ 122.564743043000021, 41.540390015000071 ], [ 122.561004638000099, 41.545753479000155 ], [ 122.554100037000012, 41.548442840000178 ], [ 122.549224853000169, 41.548786163000045 ], [ 122.536262511000018, 41.545658112000126 ], [ 122.525756836000028, 41.542926789000035 ], [ 122.515571594000221, 41.54041290300006 ], [ 122.501304626000206, 41.535247804000164 ], [ 122.490562439000314, 41.541233062000117 ], [ 122.487396241000056, 41.545890808000024 ], [ 122.48546600300017, 41.550750733000086 ], [ 122.483863831000122, 41.556293488000108 ], [ 122.478988647000165, 41.561714172000109 ], [ 122.476631164000082, 41.569694518000119 ], [ 122.47755432200006, 41.580020905000026 ], [ 122.482887268000013, 41.586059570000032 ], [ 122.483512879000045, 41.596374511000079 ], [ 122.487342834000287, 41.601474762000066 ], [ 122.488563538000221, 41.612262725000164 ], [ 122.496330262000015, 41.618797302000189 ], [ 122.495254517000035, 41.624507903999984 ], [ 122.504737854000041, 41.624195099000133 ], [ 122.513938905000032, 41.623195648000149 ], [ 122.510986329000048, 41.630481718999988 ], [ 122.512023925000221, 41.637138366000045 ], [ 122.51432800300006, 41.642211914000086 ], [ 122.519950867000148, 41.649173737000126 ], [ 122.533348084000068, 41.651439666000101 ], [ 122.53000640800019, 41.661697387000174 ], [ 122.529846191000161, 41.667419435000056 ], [ 122.53677368200033, 41.671421052000085 ], [ 122.545501709000177, 41.676822663 ], [ 122.54280090300017, 41.686172486000089 ], [ 122.544342042000039, 41.69696426400003 ], [ 122.550827026000093, 41.705993652000188 ], [ 122.561378478000051, 41.708927154999969 ], [ 122.562507629000038, 41.709712982000099 ], [ 122.569618224000124, 41.714683532000095 ], [ 122.56708526500006, 41.726364137000132 ], [ 122.570335388000103, 41.729431153000064 ], [ 122.569030762000011, 41.730636597000171 ], [ 122.563446045000205, 41.736045838000166 ], [ 122.55924224800026, 41.745090485000048 ], [ 122.550064088000113, 41.759529114000031 ], [ 122.546653748000153, 41.765804290000176 ], [ 122.541397094000104, 41.778770448000103 ], [ 122.536132812000119, 41.784858703000168 ], [ 122.526985169000227, 41.793098449000126 ], [ 122.517448425000339, 41.806625366000162 ], [ 122.511543275000122, 41.812038422000057 ], [ 122.505180359000292, 41.821132660000046 ], [ 122.49933624300013, 41.827919006000059 ], [ 122.489578246000178, 41.829296113000055 ], [ 122.479965210000046, 41.834102631000178 ], [ 122.474845886000139, 41.836517334000064 ], [ 122.466941833000078, 41.83830261200012 ], [ 122.460067748000029, 41.842590333000089 ], [ 122.453247071000192, 41.848251343000072 ], [ 122.452278138000224, 41.854465485000162 ], [ 122.452156067000146, 41.85882568400001 ], [ 122.45327758700023, 41.863613128 ], [ 122.454078675000233, 41.868183135000038 ], [ 122.45130920500003, 41.875354766000044 ], [ 122.44783783000014, 41.880481721000137 ], [ 122.445770263000213, 41.882362367000155 ], [ 122.441589355000133, 41.885211945000037 ], [ 122.438339233000193, 41.888263703000121 ], [ 122.43642425500002, 41.894039154000041 ], [ 122.43785095200019, 41.898826599000131 ], [ 122.448738097000273, 41.902015686000084 ], [ 122.450904846000071, 41.90242385900001 ], [ 122.46013641400009, 41.902900697000064 ], [ 122.468475342000033, 41.903854371000079 ], [ 122.476730346000068, 41.90297699000007 ], [ 122.48834991400031, 41.901790620000099 ], [ 122.498176574000013, 41.901790620000099 ], [ 122.505867004000038, 41.902069093000136 ], [ 122.508110047000059, 41.904083252000078 ], [ 122.509735108000086, 41.906333923000091 ], [ 122.508460998000032, 41.91233062900011 ], [ 122.507453919000113, 41.917625427000132 ], [ 122.505226134000054, 41.922954559000175 ], [ 122.502754211000138, 41.929893494000112 ], [ 122.501678468000023, 41.934947968000188 ], [ 122.497932435000166, 41.942676543000061 ], [ 122.497322082000323, 41.943161010999972 ], [ 122.495269775000111, 41.950458528000127 ], [ 122.497177124000018, 41.959190369000055 ], [ 122.489509583000086, 41.969608308000034 ], [ 122.487419127000294, 41.978279114000031 ], [ 122.488449096000181, 41.985164642000029 ], [ 122.488723756000013, 41.997310638000101 ], [ 122.487556458000199, 42.005767822000166 ], [ 122.483612061000031, 42.012722016 ], [ 122.472473144000105, 42.020233155000028 ], [ 122.469657898000037, 42.025951386000031 ], [ 122.469581604000155, 42.035118103000059 ], [ 122.45779418900031, 42.044918061000033 ], [ 122.446296693000249, 42.056320191000168 ], [ 122.440383911000026, 42.064086915000132 ], [ 122.435966491000158, 42.075977325 ], [ 122.441108704000044, 42.086547852000194 ], [ 122.428749085000163, 42.090152741000168 ], [ 122.430206299000133, 42.099555969000107 ], [ 122.435028077000084, 42.112411499000132 ], [ 122.429100037000126, 42.120864868000126 ], [ 122.4237976080002, 42.127483368000071 ], [ 122.422523499000022, 42.129058837000116 ], [ 122.42286682200006, 42.129878998000038 ], [ 122.435150146000183, 42.136024476000159 ], [ 122.446441650000111, 42.140586852000126 ], [ 122.456497193000132, 42.144947052000134 ], [ 122.46657562300004, 42.149765015000071 ], [ 122.475379943, 42.15369033900015 ], [ 122.487998962, 42.160285950000059 ], [ 122.495483398000033, 42.162178039000025 ], [ 122.506851196000071, 42.168106079000097 ], [ 122.514755248000029, 42.172512055000141 ], [ 122.522918701000208, 42.175765991000048 ], [ 122.532363891000045, 42.180133820000037 ], [ 122.546821593000118, 42.185985565000067 ], [ 122.559326172000056, 42.189594269000054 ], [ 122.568161011000029, 42.193973541000048 ], [ 122.576637268000013, 42.19721222000004 ], [ 122.585754395000208, 42.200893403000066 ], [ 122.597717286000147, 42.206115723000153 ], [ 122.60649871700025, 42.209114076000162 ], [ 122.617271424000137, 42.215278625000167 ], [ 122.626777650000122, 42.220558167000149 ], [ 122.634056091000048, 42.224510192000025 ], [ 122.644454956000118, 42.229076386000031 ], [ 122.654853821000074, 42.233638763000101 ], [ 122.665573120000204, 42.238422394000054 ], [ 122.675651550000111, 42.242534637000063 ], [ 122.68639373800022, 42.247776032000047 ], [ 122.694732667000153, 42.254451753000183 ], [ 122.698341369000104, 42.258953094000049 ], [ 122.713920593000012, 42.268432618000134 ], [ 122.722526549000122, 42.274181367000153 ], [ 122.732704163000221, 42.280349731000172 ], [ 122.740303040000072, 42.284057618000134 ], [ 122.7511520380001, 42.291355132000149 ], [ 122.756477355000129, 42.292827606000117 ], [ 122.759910583000078, 42.293430329000159 ], [ 122.766761780000024, 42.294399262000127 ], [ 122.777313232000211, 42.295280456 ], [ 122.788986206000232, 42.300029756000072 ], [ 122.797050476000095, 42.307167053000057 ], [ 122.803482055000131, 42.312274933000083 ], [ 122.810882569000114, 42.318279266000104 ], [ 122.824783326000215, 42.324348450000116 ], [ 122.834526062, 42.327537537000069 ], [ 122.845390319000217, 42.328170777000082 ], [ 122.857017516000042, 42.331768036000085 ], [ 122.863883973000043, 42.332965852000086 ], [ 122.873291016000053, 42.33546829200003 ], [ 122.879089356, 42.340137483000092 ], [ 122.882522584000071, 42.34715652400007 ], [ 122.884399414000086, 42.353992462000065 ], [ 122.884605407000322, 42.358345031000056 ], [ 122.884613037000122, 42.364768982000157 ], [ 122.883697509000172, 42.371448518000193 ], [ 122.8820114130001, 42.375160217000087 ], [ 122.874748230000023, 42.384990691999974 ], [ 122.872642516000042, 42.386421204000044 ], [ 122.869529725, 42.392471313000158 ], [ 122.865043640000181, 42.395801544000108 ], [ 122.858734132000109, 42.399864197000056 ], [ 122.854499816000271, 42.402042389000144 ], [ 122.842987061000144, 42.407619477000139 ], [ 122.83576965300017, 42.412162781000177 ], [ 122.833000183000195, 42.414478302000134 ], [ 122.830101013000103, 42.416900635000104 ], [ 122.824127198000042, 42.421642305000034 ], [ 122.821434021000073, 42.430202484000176 ], [ 122.819282531000226, 42.437137603000167 ], [ 122.816291808000187, 42.445934296000132 ], [ 122.815368652000188, 42.452613831000065 ], [ 122.812911987, 42.459789277000141 ], [ 122.812034606000111, 42.467380523000088 ], [ 122.807212830000026, 42.476909637000176 ], [ 122.807693482000104, 42.480571746000066 ], [ 122.811965943000018, 42.485736848000045 ], [ 122.817787171000191, 42.490634918000126 ], [ 122.828895569000338, 42.495853425000178 ], [ 122.837989807000213, 42.497913361000087 ], [ 122.84925079300001, 42.499687193999989 ], [ 122.866119385000047, 42.501998902000139 ], [ 122.88162994400011, 42.501819612000077 ], [ 122.885025024000015, 42.501499177000085 ], [ 122.89128112700007, 42.502483368000071 ], [ 122.896362305000025, 42.50487137000016 ], [ 122.901870728000063, 42.509544374000086 ], [ 122.907417298000155, 42.521556854000096 ], [ 122.91144561700014, 42.527645112000073 ], [ 122.916389466000169, 42.533481598000037 ], [ 122.925979615000074, 42.539188385000102 ], [ 122.934616090000077, 42.544235229000094 ], [ 122.944480895000197, 42.549018861000093 ], [ 122.95100402800017, 42.555267334000121 ], [ 122.956840514000078, 42.566581726000095 ], [ 122.957923890000075, 42.569534302000193 ], [ 122.964004517000035, 42.572528840000132 ], [ 122.964210510000044, 42.576648713000054 ], [ 122.961898804000157, 42.580154420000099 ], [ 122.95433807400002, 42.584259033000194 ], [ 122.944526672000165, 42.587043763 ], [ 122.941833496000072, 42.589179993000187 ], [ 122.936462402000075, 42.593685151000102 ], [ 122.927352905000021, 42.598056794000058 ], [ 122.916824341000051, 42.598793031000127 ], [ 122.905746460000273, 42.600925446000076 ], [ 122.897102357000108, 42.602302551000093 ], [ 122.884765624000011, 42.604232788 ], [ 122.870529175000229, 42.60552215600012 ], [ 122.868087768000123, 42.606506347000106 ], [ 122.862739562000115, 42.611690521000071 ], [ 122.85749816900011, 42.618938447000062 ], [ 122.848121642000137, 42.624458313000048 ], [ 122.841773987000124, 42.628295898000033 ], [ 122.834228516000053, 42.633075715000018 ], [ 122.823219300000119, 42.637035370000035 ], [ 122.814361572000166, 42.640472412000179 ], [ 122.803672791000054, 42.644645692000154 ], [ 122.795562744000108, 42.650817871000072 ], [ 122.789863587000241, 42.655323030000034 ], [ 122.789039611000135, 42.657634735999977 ], [ 122.786804199000017, 42.662971496000125 ], [ 122.785156249000124, 42.667598725000119 ], [ 122.784820556000113, 42.6738014230001 ], [ 122.781349183000088, 42.679164887000184 ], [ 122.772399901000199, 42.680770875000178 ], [ 122.769622803000061, 42.681297302000132 ], [ 122.763092040000174, 42.681461335000108 ], [ 122.757431030000021, 42.680225372000052 ], [ 122.754035950000116, 42.680770875000178 ], [ 122.750724793000018, 42.683151246000023 ], [ 122.745658875000117, 42.688095093000072 ], [ 122.745391846000075, 42.695674896000128 ], [ 122.750572204000036, 42.700130462000175 ], [ 122.756034852000198, 42.703666688000169 ], [ 122.761390685000038, 42.705131531000177 ], [ 122.776832581000122, 42.709102630000189 ], [ 122.784332275000338, 42.709602356000119 ], [ 122.789604187000123, 42.709236146000023 ], [ 122.799240112000234, 42.708763124000143 ], [ 122.807914733000075, 42.707855224000184 ], [ 122.820236205000128, 42.711666107000099 ], [ 122.824783326000215, 42.715682983000079 ], [ 122.828392030000032, 42.719486237000183 ], [ 122.826095580000015, 42.723403930000075 ], [ 122.838447571000074, 42.723419191000175 ], [ 122.845588683000074, 42.723003389000041 ], [ 122.852767945000096, 42.723499299000082 ], [ 122.8585510260001, 42.727249144999973 ], [ 122.866012573000148, 42.733474732000047 ], [ 122.871871948000035, 42.738594055000021 ], [ 122.875587464000205, 42.744686127000136 ], [ 122.876663207000092, 42.753833771000131 ], [ 122.878456116000052, 42.758598327000186 ], [ 122.880058289000203, 42.765895844000113 ], [ 122.892379761000029, 42.769470216000059 ], [ 122.901512146000073, 42.771522522000055 ], [ 122.908683777000078, 42.771789550000165 ], [ 122.917816163000225, 42.773838043000069 ], [ 122.928871156000127, 42.770565032999968 ], [ 122.936393738000106, 42.765319824000073 ], [ 122.94313812200005, 42.763076782000098 ], [ 122.949218749000011, 42.76015854000002 ], [ 122.955711364000081, 42.75929641700003 ], [ 122.974105835000046, 42.765911102000132 ], [ 122.987762451000208, 42.77104187000009 ], [ 122.99322509700005, 42.774333954000156 ], [ 123.00164794900013, 42.774559022000119 ], [ 123.009086610000054, 42.773895264000089 ], [ 123.022949219000111, 42.7709960950001 ], [ 123.030113220000203, 42.771026612000071 ], [ 123.040405273000033, 42.77120208700012 ], [ 123.04915619000019, 42.771877289000031 ], [ 123.061386108000079, 42.773372651000102 ], [ 123.067817687000115, 42.777317047000167 ], [ 123.075843811000027, 42.78190994400012 ], [ 123.078773498000032, 42.790313721000132 ], [ 123.086479186000133, 42.794685363000156 ], [ 123.091369628000052, 42.798675537000065 ], [ 123.100662231000229, 42.803459169000121 ], [ 123.105499268000017, 42.806533813000101 ], [ 123.120605468, 42.809318543000131 ], [ 123.128677369000116, 42.808856964000029 ], [ 123.143089294000106, 42.810279846000185 ], [ 123.151779174000239, 42.809574128000065 ], [ 123.159996033000084, 42.811630249000075 ], [ 123.166107178000061, 42.815124513 ], [ 123.17095947200005, 42.818428040000072 ], [ 123.179306031000124, 42.823001862000126 ], [ 123.190040589000091, 42.825443269000061 ], [ 123.196296692000033, 42.825950623000153 ], [ 123.210327149000136, 42.826000213000157 ], [ 123.221229553000171, 42.825683593000065 ], [ 123.231399537000016, 42.829284669000117 ], [ 123.231887817000256, 42.838214875000062 ], [ 123.219924927000079, 42.847511291000103 ], [ 123.209800720000203, 42.850555421000081 ], [ 123.200920104000147, 42.853569032000109 ], [ 123.189682007000101, 42.853431703000183 ], [ 123.173561097000288, 42.855270387000076 ], [ 123.173065186000031, 42.863315583000144 ], [ 123.173171996000178, 42.871109009000179 ], [ 123.17453765800019, 42.879093171000136 ], [ 123.177024842000264, 42.884757996000189 ], [ 123.18009948800011, 42.889484405000189 ], [ 123.181076049000012, 42.896106720000034 ], [ 123.180862427000079, 42.903678895000098 ], [ 123.178619384000058, 42.908332826000162 ], [ 123.177032470000199, 42.913650512000117 ], [ 123.176116944000114, 42.919868469000107 ], [ 123.177474975000109, 42.92762756500008 ], [ 123.181800843000133, 42.93254852300015 ], [ 123.193023681000227, 42.937953949000075 ], [ 123.20072937000009, 42.941860199000189 ], [ 123.207740784000066, 42.944412231000115 ], [ 123.215110779000156, 42.947864533000143 ], [ 123.218597412000122, 42.954414368000187 ], [ 123.224197387000231, 42.959754945000043 ], [ 123.226234435000038, 42.968410493000135 ], [ 123.229293823000035, 42.972908019000101 ], [ 123.233100892000039, 42.97967529400006 ], [ 123.238372804000278, 42.984565735000103 ], [ 123.243026734000068, 42.989704131000167 ], [ 123.249794007000332, 42.993175506000057 ], [ 123.25739288300008, 42.995014190000177 ], [ 123.264976501000092, 42.996398925000051 ], [ 123.274726867000027, 42.997482301000161 ], [ 123.284729004000155, 42.997413634999987 ], [ 123.293487549000133, 42.997615814000142 ], [ 123.302536011000257, 42.997344972000121 ], [ 123.315605163000328, 43.001770019000048 ], [ 123.321899413000097, 43.002502441000047 ], [ 123.336517333000074, 43.006649018000019 ], [ 123.342781066000271, 43.006916045000025 ], [ 123.351654052000072, 43.00894165 ], [ 123.360290527000302, 43.012351990000127 ], [ 123.368507385000044, 43.013935089000086 ], [ 123.37673187200005, 43.015522003000115 ], [ 123.390426636000029, 43.019920350000177 ], [ 123.398109436000141, 43.022895814000151 ], [ 123.408920288000104, 43.026000977000137 ], [ 123.417198181000117, 43.03377532900015 ], [ 123.42514801100026, 43.036052703000109 ], [ 123.432121278000182, 43.037670136000088 ], [ 123.442741393, 43.037342071000012 ], [ 123.455627442000036, 43.03831863400012 ], [ 123.465332031000116, 43.038475037000183 ], [ 123.476310731000126, 43.039047241000048 ], [ 123.485374451000212, 43.038768768000011 ], [ 123.493125916000054, 43.03760528600003 ], [ 123.504348755000024, 43.037021636000077 ], [ 123.515808105000133, 43.035057069000175 ], [ 123.523841858000083, 43.022876740000186 ], [ 123.527175904000046, 43.015888213000039 ], [ 123.531776428000057, 43.009094238000046 ], [ 123.538299561000031, 43.008426666000048 ], [ 123.545761108000193, 43.007728576000034 ], [ 123.556632995000086, 43.00646209700011 ], [ 123.561035156000116, 42.999267579000104 ], [ 123.56082153300008, 42.994232178000118 ], [ 123.56060028100012, 42.988967896000133 ], [ 123.554748534000055, 42.983596802000136 ], [ 123.544387818000018, 42.981994630000088 ], [ 123.541961670000092, 42.976322174000074 ], [ 123.554832458000078, 42.970764161000034 ], [ 123.556335449000017, 42.962020874000189 ], [ 123.560569764000093, 42.951385498000036 ], [ 123.567306518000123, 42.948486327000069 ], [ 123.57680511500007, 42.9443779 ], [ 123.585441590000073, 42.942115784000066 ], [ 123.592735291000054, 42.937599182000156 ], [ 123.59053039600019, 42.930267334000121 ], [ 123.584983826000098, 42.924274445000151 ], [ 123.580062865000173, 42.918052674000023 ], [ 123.586387634000062, 42.910991668000065 ], [ 123.590866089000315, 42.902084350000052 ], [ 123.584785461000138, 42.887836457000049 ], [ 123.602088928000171, 42.876033782000093 ], [ 123.59717559700016, 42.868667602000073 ], [ 123.59101867600009, 42.862213135000047 ], [ 123.593727113000114, 42.843437195000149 ], [ 123.585723878000067, 42.8351364130001 ], [ 123.59083557200006, 42.824169159000178 ], [ 123.593116760000157, 42.815937043000133 ], [ 123.588218690000076, 42.807884216000048 ], [ 123.582054138000103, 42.802803040000072 ], [ 123.57930755700022, 42.797512055000084 ], [ 123.584976196000184, 42.792278290000013 ], [ 123.588462829000036, 42.787487030000079 ], [ 123.60064697200005, 42.784355164000146 ], [ 123.596717835000049, 42.774021149000134 ], [ 123.592437745000325, 42.767120361000082 ], [ 123.58020782500023, 42.77437210100004 ], [ 123.573791504000042, 42.764019013000166 ], [ 123.570823670000323, 42.751853943000071 ], [ 123.558113099000025, 42.747184754000045 ], [ 123.554763795000326, 42.741203309000127 ], [ 123.559501647000161, 42.735507965000124 ], [ 123.567031860000156, 42.730285645000038 ], [ 123.563056946000074, 42.724761964000152 ], [ 123.56125640900018, 42.719017029000099 ], [ 123.5675354010001, 42.714706420000027 ], [ 123.569168090000289, 42.708297730000027 ], [ 123.567405700000108, 42.699581146000185 ], [ 123.569969177000075, 42.693408967000096 ], [ 123.579071044000102, 42.686592103000066 ], [ 123.573516846000075, 42.682434083000146 ], [ 123.571754456000235, 42.674171448000095 ], [ 123.578681946000188, 42.666423798000153 ], [ 123.592941284000176, 42.670181274000186 ], [ 123.604705810000155, 42.674610139000094 ], [ 123.613426209000181, 42.673290252000186 ], [ 123.614158630000134, 42.663440705000141 ], [ 123.628532409000059, 42.657341004000045 ], [ 123.622680665000075, 42.652492522000159 ], [ 123.622764586000017, 42.644702912000071 ], [ 123.629989625, 42.637870789000146 ], [ 123.640274047000048, 42.63495254500009 ], [ 123.648384094000107, 42.632019043000184 ], [ 123.649703979000151, 42.625152588000049 ], [ 123.650718689000087, 42.617366791000052 ], [ 123.657966613000099, 42.60778427200006 ], [ 123.668251038000221, 42.604408264000142 ], [ 123.677589417000036, 42.602397920000044 ], [ 123.685081481000225, 42.598773957000162 ], [ 123.687011719000225, 42.592369080000026 ], [ 123.681152344000111, 42.587749481000174 ], [ 123.677192689000094, 42.580852508000135 ], [ 123.683425904000046, 42.578594207000094 ], [ 123.694633484000178, 42.574993133000191 ], [ 123.704307557000106, 42.570461273000035 ], [ 123.70874023500005, 42.561546326000041 ], [ 123.71531677300004, 42.555393220000042 ], [ 123.730857849000017, 42.553184509000175 ], [ 123.73146057200006, 42.55350494400011 ], [ 123.7386093140002, 42.553455354000107 ], [ 123.746086120000314, 42.550514221000185 ], [ 123.749267579000048, 42.537425995000149 ], [ 123.733451843000239, 42.538299561000144 ], [ 123.724922181000238, 42.536060334000013 ], [ 123.710678101000099, 42.531719208000027 ], [ 123.705039979000048, 42.530990601000042 ], [ 123.701560974000131, 42.529960633000087 ], [ 123.69572448700012, 42.52602386600006 ], [ 123.688606262000121, 42.521442414000092 ], [ 123.679855346000068, 42.515537262000123 ], [ 123.672241212000131, 42.512805939000032 ], [ 123.666946411000026, 42.512523651000095 ], [ 123.660110474000248, 42.512519836000081 ], [ 123.654853820000199, 42.512920379999969 ], [ 123.649154663000331, 42.511043549000021 ], [ 123.651695252000309, 42.522205352000128 ], [ 123.650978088000102, 42.530719758000089 ], [ 123.648551942000154, 42.536769867000032 ], [ 123.64516449100006, 42.542388916000164 ], [ 123.641342164000093, 42.545955658000082 ], [ 123.638877869000225, 42.546268462000171 ], [ 123.62915802100008, 42.544750214000146 ], [ 123.620521546000077, 42.540672302000075 ], [ 123.615165710000156, 42.534420014000034 ], [ 123.609237670000084, 42.523597717000143 ], [ 123.602500916000167, 42.509822847000123 ], [ 123.596862793000014, 42.503807068000185 ], [ 123.59107971200001, 42.50055313200005 ], [ 123.586883545000319, 42.497936250000066 ], [ 123.574607849000017, 42.495121003000122 ], [ 123.57028961200001, 42.490440369000112 ], [ 123.562896728000055, 42.486091615000191 ], [ 123.554420471000185, 42.484527589000095 ], [ 123.550041198000145, 42.483978271000126 ], [ 123.546661377000191, 42.484546662000128 ], [ 123.535614015000192, 42.481456756999989 ], [ 123.524383546000081, 42.480442047000054 ], [ 123.513084412000126, 42.478275299000018 ], [ 123.504287719000104, 42.476490020000028 ], [ 123.491012573000035, 42.472320557000103 ], [ 123.484687806000011, 42.470226289000038 ], [ 123.480133057000103, 42.466697693000071 ], [ 123.478752136000026, 42.458972931000062 ], [ 123.477081299000019, 42.450656892000097 ], [ 123.47782134900001, 42.442329406999988 ], [ 123.481773377000195, 42.433990478000055 ], [ 123.488121032000208, 42.424449921000189 ], [ 123.493568420000088, 42.414478302000134 ], [ 123.493659974000025, 42.414318084000058 ], [ 123.495170592000136, 42.401824951000094 ], [ 123.499076843000125, 42.389324188000103 ], [ 123.499801637000019, 42.378620149000028 ], [ 123.506111145000204, 42.365512847000161 ], [ 123.510040284000297, 42.355979920000038 ], [ 123.509605408000198, 42.351524354000162 ], [ 123.508613587000127, 42.344505310000045 ], [ 123.512321473000156, 42.339111328000172 ], [ 123.516349792000142, 42.333930969999983 ], [ 123.518554688000108, 42.329273224000076 ], [ 123.521080016000155, 42.324832916000048 ], [ 123.520133972000053, 42.319355012000131 ], [ 123.518280030000142, 42.314136505000079 ], [ 123.515083313000218, 42.307121276000089 ], [ 123.512931824000134, 42.302143097 ], [ 123.509796143000131, 42.296047212000019 ], [ 123.50450134200014, 42.290248870000084 ], [ 123.500785828000062, 42.284858703000054 ], [ 123.496772767000039, 42.279708862000177 ], [ 123.493080139000085, 42.274780273000147 ], [ 123.48558044500021, 42.268131256000061 ], [ 123.47975158700001, 42.263725280000187 ], [ 123.474578857000097, 42.259757996000019 ], [ 123.470970153000167, 42.256202697000106 ], [ 123.469757079000146, 42.251419068000189 ], [ 123.46954345600011, 42.247756959000128 ], [ 123.467803955000022, 42.244365693000191 ], [ 123.467323303000057, 42.241397858000028 ], [ 123.469993592000264, 42.239479066000115 ], [ 123.476661682000099, 42.237201692000156 ], [ 123.481803894000109, 42.235202789000027 ], [ 123.485435486000029, 42.233940124000128 ], [ 123.483116150000114, 42.231262206000054 ], [ 123.479873658000088, 42.228610992000085 ], [ 123.47474670500003, 42.225559234000173 ], [ 123.468711853000173, 42.222766876000037 ], [ 123.463226318000238, 42.218807220000144 ], [ 123.45876312300004, 42.216423036000037 ], [ 123.455886841000051, 42.214679719000173 ], [ 123.451957702000072, 42.210899354000105 ], [ 123.451789857000335, 42.207920075000061 ], [ 123.451629639000089, 42.205173493000189 ], [ 123.453819275000228, 42.200286865000123 ], [ 123.455902100000117, 42.193565370000101 ], [ 123.457138062000126, 42.188247681 ], [ 123.455345154000042, 42.179611206000175 ], [ 123.472618103000059, 42.184204101000148 ], [ 123.481658936000031, 42.191032411000037 ], [ 123.488571168000135, 42.193107606000069 ], [ 123.494476317000135, 42.193611145000091 ], [ 123.502197266000053, 42.193592071000069 ], [ 123.50734710800009, 42.19182205300018 ], [ 123.514358521000077, 42.190219880000029 ], [ 123.520606994000104, 42.186119081000129 ], [ 123.525009155000134, 42.182075501000043 ], [ 123.526199341000165, 42.176071167000089 ], [ 123.528289794000216, 42.169574738000165 ], [ 123.529914855000129, 42.16562271100014 ], [ 123.533157350000238, 42.157714845000044 ], [ 123.534645080000018, 42.151470185000107 ], [ 123.538360596000189, 42.146301270000095 ], [ 123.542175292000138, 42.142967224000131 ], [ 123.548500061000027, 42.140235901000153 ], [ 123.551811219000115, 42.13875579900008 ], [ 123.559158326000215, 42.127269745999968 ], [ 123.563789368000016, 42.122070312000176 ], [ 123.568572997000047, 42.119388581000067 ], [ 123.578338622000047, 42.117469789000154 ], [ 123.585968017000027, 42.116073609000068 ], [ 123.589317321000067, 42.115276336000079 ], [ 123.598854066000172, 42.109680176000154 ], [ 123.601692199000126, 42.105457306000176 ], [ 123.608772278000174, 42.099948883000138 ], [ 123.616790771000069, 42.094863892000149 ], [ 123.620666503000052, 42.092670441999985 ], [ 123.62567901500006, 42.088832855000192 ], [ 123.634307862000014, 42.083499909000182 ], [ 123.63975525, 42.081707001000154 ], [ 123.648971557000095, 42.081172943000183 ], [ 123.655769348000035, 42.081409454000152 ], [ 123.663116455000022, 42.085525512000174 ], [ 123.673477173000038, 42.088623047000056 ], [ 123.682731629000273, 42.088542938000103 ], [ 123.690635681000231, 42.086673736000137 ], [ 123.696403504000045, 42.085102082000162 ], [ 123.703872682000224, 42.081176758000083 ], [ 123.715217591000055, 42.075057984000068 ], [ 123.719635010000047, 42.071697235999977 ], [ 123.729133606000119, 42.065635682000106 ], [ 123.734436034000055, 42.061553956000068 ], [ 123.739204407000329, 42.05886840800008 ], [ 123.742378234000171, 42.055313110999975 ], [ 123.743621827000084, 42.050453186000141 ], [ 123.741477966000048, 42.045703888000105 ], [ 123.737052917000142, 42.038970948000099 ], [ 123.732734679000032, 42.03383636500007 ], [ 123.732887269000116, 42.031307221000077 ], [ 123.738616943000011, 42.029273986000135 ], [ 123.74710083000025, 42.026920318000066 ], [ 123.759124756, 42.026969911000037 ], [ 123.770561219000115, 42.027496338000162 ], [ 123.777565002000074, 42.031162262000066 ], [ 123.784339905000024, 42.035972595000089 ], [ 123.786636353000176, 42.038188934000061 ], [ 123.790229798000041, 42.041511537000076 ], [ 123.795852662000243, 42.042694092000147 ], [ 123.801696778000064, 42.042491913000163 ], [ 123.801338196000074, 42.036766052000075 ], [ 123.798774719000335, 42.030197144000113 ], [ 123.797096253000063, 42.027961732000108 ], [ 123.792694092000033, 42.021682740000131 ], [ 123.783111572000166, 42.016273499000135 ], [ 123.773017884000069, 42.01249313500017 ], [ 123.76414489800004, 42.008434297000065 ], [ 123.757713317000025, 42.00406265200013 ], [ 123.75583648700001, 41.998619080000026 ], [ 123.75707245000001, 41.9937553420001 ], [ 123.762588501000323, 41.988288880000084 ], [ 123.768066407000106, 41.987182617000144 ], [ 123.773765564000087, 41.984687805000135 ], [ 123.783668518000013, 41.985870362000185 ], [ 123.779014588000109, 41.980293274000019 ], [ 123.774215698000035, 41.97747421400004 ], [ 123.770477295000092, 41.976680756000121 ], [ 123.760429382000098, 41.973583222000116 ], [ 123.74834442100007, 41.972389221000185 ], [ 123.741127015000075, 41.970108033000088 ], [ 123.734214783000311, 41.967819213999974 ], [ 123.725814820000096, 41.961448670000095 ], [ 123.721023560000162, 41.953575134000062 ], [ 123.717056275000118, 41.94406890900018 ], [ 123.716331483000204, 41.937206269000058 ], [ 123.718887328000164, 41.933677674000023 ], [ 123.720642090000069, 41.927188873000091 ], [ 123.721519471000079, 41.921421052000028 ], [ 123.721481324000024, 41.915683746000184 ], [ 123.719497681000121, 41.908405305000031 ], [ 123.717247009000062, 41.901824951000037 ], [ 123.720680237000124, 41.896049501 ], [ 123.723129272000165, 41.889102935000096 ], [ 123.729766845000199, 41.879615783000077 ], [ 123.733901977000187, 41.873291017000099 ], [ 123.733856202000084, 41.868881225000052 ], [ 123.735458374000132, 41.861942292000151 ], [ 123.730834960000038, 41.857517243000018 ], [ 123.730628968000019, 41.854084015000183 ], [ 123.728950500000224, 41.851844787000175 ], [ 123.725967407000212, 41.848274232000108 ], [ 123.722122192000143, 41.845649719000107 ], [ 123.692390441000271, 41.841835023000101 ], [ 123.683570863000114, 41.838230134000185 ], [ 123.675750732000097, 41.835964203 ], [ 123.670707703000176, 41.83383941600016 ], [ 123.668312073000038, 41.829788207999968 ], [ 123.667198181000231, 41.826610565000067 ], [ 123.665908813000101, 41.820457459000068 ], [ 123.666397096000082, 41.813323974000184 ], [ 123.668190002000188, 41.807296752000127 ], [ 123.668968201000098, 41.804973603000178 ], [ 123.667968750000114, 41.803630830000031 ], [ 123.664497375000224, 41.802139283000145 ], [ 123.66072845500014, 41.800659181000071 ], [ 123.654602051000211, 41.795814514000085 ], [ 123.655441285000052, 41.789356231000113 ], [ 123.659843444000217, 41.785995484000125 ], [ 123.668258668000135, 41.782962799000131 ], [ 123.67789459200003, 41.779884338000045 ], [ 123.683372498000153, 41.779010774000085 ], [ 123.696220398000037, 41.778347015000122 ], [ 123.70914459200003, 41.77882766800019 ], [ 123.721023560000162, 41.777278900000113 ], [ 123.7335662830003, 41.776622772000053 ], [ 123.741043091000051, 41.77338409500004 ], [ 123.745872497000164, 41.772071839000148 ], [ 123.748588562000236, 41.776340484000116 ], [ 123.748008728000059, 41.781867981000119 ], [ 123.747360230000027, 41.786251068000183 ], [ 123.747558594000111, 41.789459229000101 ], [ 123.748458861000131, 41.794250488000159 ], [ 123.748649597000053, 41.797229768000136 ], [ 123.751876831000118, 41.799873352000191 ], [ 123.758010864000198, 41.799659729000155 ], [ 123.763496398000029, 41.799015046000193 ], [ 123.768104554000161, 41.797088624000139 ], [ 123.777870179000161, 41.783977509000067 ], [ 123.782905578000168, 41.768646241000056 ], [ 123.77474212500033, 41.761631012 ], [ 123.773513795000099, 41.744956971000192 ], [ 123.774169921000066, 41.740802766000115 ], [ 123.776176452000072, 41.733615875000112 ], [ 123.780891418000124, 41.730472565000071 ], [ 123.786422730000027, 41.725688935000051 ], [ 123.794502259000183, 41.722419740000191 ], [ 123.799087524000015, 41.717212678000124 ], [ 123.803634644000226, 41.711315155000023 ], [ 123.803680419000216, 41.707180023000035 ], [ 123.79821777300026, 41.698188782000102 ], [ 123.792160034000062, 41.694499969000162 ], [ 123.787178040000185, 41.68824386600005 ], [ 123.785034180000025, 41.683269500000051 ], [ 123.783607483000083, 41.680103302000134 ], [ 123.781616210000038, 41.672595978000174 ], [ 123.779495240000074, 41.668075561000137 ], [ 123.774253845000089, 41.66252136300011 ], [ 123.769187927000189, 41.659938812000064 ], [ 123.763168335000159, 41.656703950000121 ], [ 123.754981994000104, 41.648258210000108 ], [ 123.747253417000024, 41.642097473000092 ], [ 123.743904113000212, 41.637390138000058 ], [ 123.742652894000116, 41.631923676000042 ], [ 123.744216920000213, 41.627510070000085 ], [ 123.745887756000116, 41.62469482500012 ], [ 123.752258301000211, 41.618740081000169 ], [ 123.759887694000099, 41.613426210000057 ], [ 123.766708374000018, 41.609748840000066 ], [ 123.772369384000058, 41.607257843000127 ], [ 123.7765197760001, 41.599998473000085 ], [ 123.770835877000081, 41.59720993000019 ], [ 123.76689148000014, 41.592754364000143 ], [ 123.762954713000113, 41.58852767999997 ], [ 123.755653381000116, 41.584186555000088 ], [ 123.742820739000081, 41.579578399000184 ], [ 123.733062745000211, 41.575092316000166 ], [ 123.71997833200021, 41.571403503000056 ], [ 123.709762573000035, 41.564407347999975 ], [ 123.714454650000221, 41.555980683000087 ], [ 123.718894958000078, 41.548484802000075 ], [ 123.725219727000194, 41.541843415000073 ], [ 123.732139587, 41.534950257000162 ], [ 123.73590087800028, 41.531375885000159 ], [ 123.739059448000148, 41.523002625000117 ], [ 123.741020203000289, 41.522521973000153 ], [ 123.732513429000051, 41.51840591500013 ], [ 123.726219177000075, 41.515407562000121 ], [ 123.71957397500023, 41.511730194000108 ] ] ] ] } }
]
}
